{"type": "FeatureCollection", "features": [{"type": "Feature", "geometry": {"type": "Point", "coordinates": [-91.56769, 43.08416]}, "properties": {"impact_id": "efb12e3e-fe55-5e27-b371-63b9c0cdaef9", "episode_id": "", "event_id": "", "source_type": "agency_web", "source_ref": "https://www.weather.gov/arx/aug2721", "pub_date": "", "start_date": "2021-08-27", "end_date": "2021-08-29", "date_precision": "range", "location_name": "Postville, Allamakee County, IA", "location_raw": "Postville", "geom_type": "place_centroid", "admin_fips": "19005", "huc8": "", "impact_type": "road_flooded", "quantity": "", "quantity_unit": "", "severity": 1, "confidence": "B", "flood_type": "flash", "mention_count": 1, "text_span": "Towns with documented flooding: Fredericksburg, New Hampton, Spillville, Calmar, Postville, Greene, Marble Rock.", "notes": ""}}, {"type": "Feature", "geometry": {"type": "Point", "coordinates": [-92.31472, 43.05622]}, "properties": {"impact_id": "5b0be463-e118-51ee-a5b0-13282e2b22b2", "episode_id": "162520_0", "event_id": "", "source_type": "agency_web", "source_ref": "https://www.weather.gov/arx/aug2721", "pub_date": "", "start_date": "2021-08-27", "end_date": "2021-08-29", "date_precision": "range", "location_name": "New Hampton, Chickasaw County, IA", "location_raw": "Fredericksburg and New Hampton area", "geom_type": "place_centroid", "admin_fips": "19037", "huc8": "", "impact_type": "home_flooded", "quantity": "", "quantity_unit": "", "severity": 2, "confidence": "B", "flood_type": "flash", "mention_count": 1, "text_span": "Several homes were flooded.", "notes": ""}}, {"type": "Feature", "geometry": {"type": "Point", "coordinates": [-92.31472, 43.05622]}, "properties": {"impact_id": "b52e1fb7-6435-565d-b4c5-327f9c85145e", "episode_id": "162520_0", "event_id": "", "source_type": "agency_web", "source_ref": "https://www.weather.gov/arx/aug2721", "pub_date": "", "start_date": "2021-08-27", "end_date": "2021-08-29", "date_precision": "range", "location_name": "New Hampton, Chickasaw County, IA", "location_raw": "US Highway 18 near Fredericksburg and New Hampton", "geom_type": "place_centroid", "admin_fips": "19037", "huc8": "", "impact_type": "road_closed", "quantity": "", "quantity_unit": "", "severity": 2, "confidence": "A", "flood_type": "flash", "mention_count": 1, "text_span": "US Highway 18 near Fredericksburg and New Hampton, IA closed; secondary roads were also damaged.", "notes": ""}}, {"type": "Feature", "geometry": {"type": "Point", "coordinates": [-91.95221, 43.20284]}, "properties": {"impact_id": "e8dae206-fd9f-5f41-a84d-3a405482dbcc", "episode_id": "162520_0", "event_id": "", "source_type": "agency_web", "source_ref": "https://www.weather.gov/arx/aug2721", "pub_date": "", "start_date": "2021-08-27", "end_date": "2021-08-29", "date_precision": "range", "location_name": "Spillville, Winneshiek County, IA", "location_raw": "Spillville", "geom_type": "place_centroid", "admin_fips": "19191", "huc8": "", "impact_type": "road_flooded", "quantity": "", "quantity_unit": "", "severity": 1, "confidence": "B", "flood_type": "flash", "mention_count": 1, "text_span": "Towns with documented flooding: Fredericksburg, New Hampton, Spillville, Calmar, Postville, Greene, Marble Rock.", "notes": ""}}, {"type": "Feature", "geometry": {"type": "Point", "coordinates": [-92.86777, 42.96461]}, "properties": {"impact_id": "92b09afc-a8d6-5439-a456-c2811eacce31", "episode_id": "162520_0", "event_id": "", "source_type": "agency_web", "source_ref": "https://www.weather.gov/arx/aug2721", "pub_date": "", "start_date": "2021-08-27", "end_date": "2021-08-29", "date_precision": "range", "location_name": "Marble Rock, Floyd County, IA", "location_raw": "Marble Rock", "geom_type": "place_centroid", "admin_fips": "19067", "huc8": "", "impact_type": "road_flooded", "quantity": "", "quantity_unit": "", "severity": 1, "confidence": "B", "flood_type": "flash", "mention_count": 1, "text_span": "Towns with documented flooding: Fredericksburg, New Hampton, Spillville, Calmar, Postville, Greene, Marble Rock.", "notes": ""}}, {"type": "Feature", "geometry": {"type": "Point", "coordinates": [-91.40283, 42.85739]}, "properties": {"impact_id": "a9b9d216-74cd-54ee-93e1-3d298aefef14", "episode_id": "162520_0", "event_id": "", "source_type": "agency_web", "source_ref": "https://www.weather.gov/arx/aug2721", "pub_date": "", "start_date": "2021-08-28", "end_date": "2021-08-31", "date_precision": "range", "location_name": "Elkader, Clayton County, IA", "location_raw": "Turkey River", "geom_type": "place_centroid", "admin_fips": "19043", "huc8": "", "impact_type": "river_overbank", "quantity": "", "quantity_unit": "", "severity": 2, "confidence": "B", "flood_type": "river", "mention_count": 1, "text_span": "Area rivers flooded which led to the closure of many area highways; record flooding on Turkey River, Little Cedar River, Upper Iowa River.", "notes": ""}}, {"type": "Feature", "geometry": {"type": "Point", "coordinates": [-96.17041, 43.07479]}, "properties": {"impact_id": "c90f5f23-a2f0-59ba-8942-dae91bc2a2e4", "episode_id": "184558_0", "event_id": "", "source_type": "agency_web", "source_ref": "https://www.weather.gov/fsd/20230805-flooding-sesdnwia", "pub_date": "", "start_date": "2023-08-05", "end_date": "2023-08-06", "date_precision": "range", "location_name": "Sioux Center, Sioux County, IA", "location_raw": "US 75 between County Road B46 and B30", "geom_type": "place_centroid", "admin_fips": "19167", "huc8": "", "impact_type": "road_closed", "quantity": "", "quantity_unit": "", "severity": 2, "confidence": "A", "flood_type": "flash", "mention_count": 1, "text_span": "US 75 is blocked in both directions between County Road B46 and B30, due to standing water.", "notes": ""}}, {"type": "Feature", "geometry": {"type": "Point", "coordinates": [-96.46521, 43.0863]}, "properties": {"impact_id": "90fb3e95-65d2-5e27-a03f-e63ae1eba03b", "episode_id": "184558_0", "event_id": "", "source_type": "agency_web", "source_ref": "https://www.weather.gov/fsd/20230805-flooding-sesdnwia", "pub_date": "", "start_date": "2023-08-05", "end_date": "2023-08-06", "date_precision": "range", "location_name": "Sioux County, IA", "location_raw": "US 18 between County Road K64 and County Road L14", "geom_type": "county_centroid", "admin_fips": "19167", "huc8": "", "impact_type": "road_closed", "quantity": "", "quantity_unit": "", "severity": 2, "confidence": "B", "flood_type": "flash", "mention_count": 1, "text_span": "US 18 is closed in both directions between County Road K64 and County Road L14 due to standing water over the highway.", "notes": ""}}, {"type": "Feature", "geometry": {"type": "Point", "coordinates": [-96.17041, 43.07479]}, "properties": {"impact_id": "7d4e3340-1ab2-5af3-be70-74670db4741a", "episode_id": "184558_0", "event_id": "", "source_type": "agency_web", "source_ref": "https://www.weather.gov/fsd/20230805-flooding-sesdnwia", "pub_date": "", "start_date": "2023-08-05", "end_date": "2023-08-06", "date_precision": "range", "location_name": "Sioux Center, Sioux County, IA", "location_raw": "streets in Sioux Center; no travel advised", "geom_type": "place_centroid", "admin_fips": "19167", "huc8": "", "impact_type": "road_flooded", "quantity": "", "quantity_unit": "", "severity": 2, "confidence": "A", "flood_type": "flash", "mention_count": 1, "text_span": "No travel advised in Sioux Center due to flooding; several vehicles stuck in flooded streets.", "notes": "9.02 inches of rain 1 mile south of Sioux Center"}}, {"type": "Feature", "geometry": {"type": "Point", "coordinates": [-96.28904, 43.20258]}, "properties": {"impact_id": "0509ab86-1450-5d40-9a32-aa841a30594b", "episode_id": "184558_0", "event_id": "", "source_type": "agency_web", "source_ref": "https://www.weather.gov/fsd/20230805-flooding-sesdnwia", "pub_date": "", "start_date": "2023-08-05", "end_date": "2023-08-06", "date_precision": "range", "location_name": "Rock Valley, Sioux County, IA", "location_raw": "Main St by 12th St; 14th St from 12th Ave to 10th Ave", "geom_type": "place_centroid", "admin_fips": "19167", "huc8": "", "impact_type": "road_flooded", "quantity": "", "quantity_unit": "", "severity": 2, "confidence": "A", "flood_type": "flash", "mention_count": 1, "text_span": "Some streets in Rock Valley have become impassable due to flash flooding; avoid Main St by 12th St, also 14th St from 12th Ave to 10th Ave due to flooding.", "notes": ""}}, {"type": "Feature", "geometry": {"type": "Point", "coordinates": [-96.00315, 43.18912]}, "properties": {"impact_id": "580dd00a-258b-5d7d-b7ed-ca122f2b1fe0", "episode_id": "184558_0", "event_id": "", "source_type": "agency_web", "source_ref": "https://www.weather.gov/fsd/20230805-flooding-sesdnwia", "pub_date": "", "start_date": "2023-08-05", "end_date": "2023-08-06", "date_precision": "range", "location_name": "Boyden, Sioux County, IA", "location_raw": "streets in Boyden", "geom_type": "place_centroid", "admin_fips": "19167", "huc8": "", "impact_type": "road_flooded", "quantity": "", "quantity_unit": "", "severity": 1, "confidence": "A", "flood_type": "flash", "mention_count": 1, "text_span": "Residents reported approximately 7 inches of rain with street inundation in the town itself.", "notes": "8.38 inches 1 mile west of Boyden"}}, {"type": "Feature", "geometry": {"type": "Point", "coordinates": [-96.46521, 43.0863]}, "properties": {"impact_id": "5ecc7725-3e8e-5a4e-a492-0f0d53162bc5", "episode_id": "191899_0", "event_id": "", "source_type": "agency_web", "source_ref": "https://www.weather.gov/fsd/20240620-22-HeavyRain-Flooding", "pub_date": "", "start_date": "2024-06-20", "end_date": "2024-06-24", "date_precision": "range", "location_name": "Sioux County, IA", "location_raw": "northwest Iowa region", "geom_type": "county_centroid", "admin_fips": "19167", "huc8": "", "impact_type": "fatality", "quantity": "3", "quantity_unit": "people", "severity": 3, "confidence": "B", "flood_type": "river", "mention_count": 1, "text_span": "3 deaths resulted from the flooding.", "notes": "Regional summary count includes the tri-state area; NOAA Storm Events lists 2 direct fatalities in Iowa for this episode"}}, {"type": "Feature", "geometry": {"type": "Point", "coordinates": [-96.28904, 43.20258]}, "properties": {"impact_id": "e77c128c-2bee-5ebf-a2cd-f70519aba2d7", "episode_id": "191899_0", "event_id": "", "source_type": "agency_web", "source_ref": "https://www.weather.gov/fsd/20240620-22-HeavyRain-Flooding", "pub_date": "", "start_date": "2024-06-20", "end_date": "2024-06-24", "date_precision": "range", "location_name": "Rock Valley, Sioux County, IA", "location_raw": "region-wide, centered on Rock Valley and Spencer", "geom_type": "place_centroid", "admin_fips": "19167", "huc8": "", "impact_type": "home_flooded", "quantity": "300", "quantity_unit": "homes", "severity": 3, "confidence": "B", "flood_type": "river", "mention_count": 1, "text_span": "Over 300 homes and businesses being destroyed and thousands more receiving damage.", "notes": "Regional total across northwest Iowa communities"}}, {"type": "Feature", "geometry": {"type": "Point", "coordinates": [-96.46521, 43.0863]}, "properties": {"impact_id": "1867e999-ffdc-59ae-a579-795e67c25a63", "episode_id": "191899_0", "event_id": "", "source_type": "agency_web", "source_ref": "https://www.weather.gov/fsd/20240620-22-HeavyRain-Flooding", "pub_date": "", "start_date": "2024-06-20", "end_date": "2024-06-24", "date_precision": "range", "location_name": "Sioux County, IA", "location_raw": "northwest Iowa region", "geom_type": "county_centroid", "admin_fips": "19167", "huc8": "", "impact_type": "rescue", "quantity": "", "quantity_unit": "", "severity": 2, "confidence": "B", "flood_type": "river", "mention_count": 1, "text_span": "Numerous swift water rescues and evacuations occurred through the event.", "notes": ""}}, {"type": "Feature", "geometry": {"type": "Point", "coordinates": [-96.48291, 43.00131]}, "properties": {"impact_id": "7e9782b3-218d-51c9-acc6-47f1d9a64a52", "episode_id": "191899_0", "event_id": "", "source_type": "agency_web", "source_ref": "https://www.weather.gov/fsd/20240620-22-HeavyRain-Flooding", "pub_date": "", "start_date": "2024-06-20", "end_date": "2024-06-24", "date_precision": "range", "location_name": "Hawarden, Sioux County, IA", "location_raw": "Hawarden", "geom_type": "place_centroid", "admin_fips": "19167", "huc8": "", "impact_type": "road_flooded", "quantity": "", "quantity_unit": "", "severity": 2, "confidence": "B", "flood_type": "river", "mention_count": 1, "text_span": "Rock Rapids, Rock Valley, Hawarden, Spencer, Sioux Rapids, Cherokee experienced widespread flooding.", "notes": "Big Sioux River community"}}, {"type": "Feature", "geometry": {"type": "Point", "coordinates": [-96.43634, 43.45465]}, "properties": {"impact_id": "c952c016-b3a9-5172-aa58-f145be66c392", "episode_id": "191899_0", "event_id": "", "source_type": "agency_web", "source_ref": "https://www.weather.gov/fsd/20240620-22-HeavyRain-Flooding", "pub_date": "", "start_date": "2024-06-21", "end_date": "2024-06-24", "date_precision": "range", "location_name": "Larchwood, Lyon County, IA", "location_raw": "Klondike Bridge at the Iowa-South Dakota border", "geom_type": "place_centroid", "admin_fips": "19119", "huc8": "", "impact_type": "bridge_damaged", "quantity": "", "quantity_unit": "", "severity": 2, "confidence": "B", "flood_type": "river", "mention_count": 1, "text_span": "Klondike Bridge at the Iowa/South Dakota border (flooded).", "notes": "Big Sioux River crossing near Larchwood"}}, {"type": "Feature", "geometry": {"type": "Point", "coordinates": [-96.30367, 43.34175]}, "properties": {"impact_id": "c08a4428-e99d-52c8-9dae-fc4a22aa32b8", "episode_id": "191899_0", "event_id": "", "source_type": "agency_web", "source_ref": "https://www.weather.gov/fsd/20240620-22-HeavyRain-Flooding", "pub_date": "", "start_date": "2024-06-21", "end_date": "2024-06-23", "date_precision": "range", "location_name": "Alvord, Lyon County, IA", "location_raw": "railroad bridge south of Alvord", "geom_type": "place_centroid", "admin_fips": "19119", "huc8": "", "impact_type": "infrastructure", "quantity": "", "quantity_unit": "", "severity": 3, "confidence": "A", "flood_type": "river", "mention_count": 1, "text_span": "Train derailment south of Alvord, IA due to a compromised railroad bridge.", "notes": ""}}, {"type": "Feature", "geometry": {"type": "Point", "coordinates": [-96.16639, 43.4267]}, "properties": {"impact_id": "bfdd8dd2-c815-53dd-a635-36a16ddf91af", "episode_id": "191899_0", "event_id": "", "source_type": "agency_web", "source_ref": "https://www.weather.gov/fsd/20240620-22-HeavyRain-Flooding", "pub_date": "", "start_date": "2024-06-21", "end_date": "2024-06-24", "date_precision": "range", "location_name": "Rock Rapids, Lyon County, IA", "location_raw": "Rock River at Rock Rapids", "geom_type": "place_centroid", "admin_fips": "19119", "huc8": "", "impact_type": "river_overbank", "quantity": "", "quantity_unit": "", "severity": 2, "confidence": "A", "flood_type": "river", "mention_count": 1, "text_span": "Multiple gauges on the Rock River exceeded previous record stages, with some locations breaking previous crests by several feet.", "notes": "Record crest"}}, {"type": "Feature", "geometry": {"type": "Point", "coordinates": [-95.15269, 43.14702]}, "properties": {"impact_id": "f228e26d-d218-5a45-a390-34c708b08ac6", "episode_id": "191899_0", "event_id": "", "source_type": "agency_web", "source_ref": "https://www.weather.gov/fsd/20240620-22-HeavyRain-Flooding", "pub_date": "", "start_date": "2024-06-21", "end_date": "2024-06-25", "date_precision": "range", "location_name": "Spencer, Clay County, IA", "location_raw": "Little Sioux River at Spencer", "geom_type": "place_centroid", "admin_fips": "19041", "huc8": "", "impact_type": "river_overbank", "quantity": "", "quantity_unit": "", "severity": 2, "confidence": "A", "flood_type": "river", "mention_count": 1, "text_span": "Little Sioux River at Spencer and Cherokee: stages estimated via high water mark due to data outages.", "notes": "Record crest; gauge outage during peak"}}, {"type": "Feature", "geometry": {"type": "Point", "coordinates": [-96.2956, 42.40961]}, "properties": {"impact_id": "18e40b90-edd8-526c-b467-3e05446332af", "episode_id": "191899_0", "event_id": "", "source_type": "agency_web", "source_ref": "https://www.weather.gov/fsd/20240620-22-HeavyRain-Flooding", "pub_date": "", "start_date": "2024-06-21", "end_date": "2024-06-24", "date_precision": "range", "location_name": "Woodbury County, IA", "location_raw": "I-29 corridor, northwest Iowa", "geom_type": "county_centroid", "admin_fips": "19193", "huc8": "", "impact_type": "road_closed", "quantity": "", "quantity_unit": "", "severity": 2, "confidence": "C", "flood_type": "river", "mention_count": 1, "text_span": "Closure of both major interstates (I-29 and I-90) along with countless other federal, state, and county highways.", "notes": "Regional closure spanning multiple counties; anchored to the I-29 Iowa reach"}}, {"type": "Feature", "geometry": {"type": "Point", "coordinates": [-95.14854, 42.89167]}, "properties": {"impact_id": "72c1dd95-34bc-5ca5-95c9-904b19a10c07", "episode_id": "191899_0", "event_id": "", "source_type": "agency_web", "source_ref": "https://www.weather.gov/fsd/20240620-22-HeavyRain-Flooding", "pub_date": "", "start_date": "2024-06-21", "end_date": "2024-06-24", "date_precision": "range", "location_name": "Sioux Rapids, Buena Vista County, IA", "location_raw": "Sioux Rapids", "geom_type": "place_centroid", "admin_fips": "19021", "huc8": "", "impact_type": "road_flooded", "quantity": "", "quantity_unit": "", "severity": 2, "confidence": "B", "flood_type": "river", "mention_count": 1, "text_span": "Rock Rapids, Rock Valley, Hawarden, Spencer, Sioux Rapids, Cherokee experienced widespread flooding.", "notes": ""}}, {"type": "Feature", "geometry": {"type": "Point", "coordinates": [-96.28904, 43.20258]}, "properties": {"impact_id": "e4e9ca27-2b6d-517a-bf4c-bed294f7cfd6", "episode_id": "191899_0", "event_id": "", "source_type": "local_news", "source_ref": "https://www.ktiv.com/2024/06/22/emergency-evacuation-issued-city-rock-valley-ia-due-rising-floodwaters/", "pub_date": "2024-06-22", "start_date": "2024-06-22", "end_date": "2024-06-22", "date_precision": "day", "location_name": "Rock Valley, Sioux County, IA", "location_raw": "all residents north of Highway 18", "geom_type": "place_centroid", "admin_fips": "19167", "huc8": "", "impact_type": "evacuation", "quantity": "", "quantity_unit": "", "severity": 3, "confidence": "A", "flood_type": "river", "mention_count": 1, "text_span": "All residents north of Highway 18 ordered to evacuate.", "notes": ""}}, {"type": "Feature", "geometry": {"type": "Point", "coordinates": [-96.28904, 43.20258]}, "properties": {"impact_id": "443f6c56-43ba-56ef-88ea-574617d6a69e", "episode_id": "191899_0", "event_id": "", "source_type": "local_news", "source_ref": "https://www.ktiv.com/2024/06/22/emergency-evacuation-issued-city-rock-valley-ia-due-rising-floodwaters/", "pub_date": "2024-06-22", "start_date": "2024-06-22", "end_date": "2024-06-22", "date_precision": "day", "location_name": "Rock Valley, Sioux County, IA", "location_raw": "levee on the Rock River", "geom_type": "place_centroid", "admin_fips": "19167", "huc8": "", "impact_type": "infrastructure", "quantity": "", "quantity_unit": "", "severity": 3, "confidence": "A", "flood_type": "river", "mention_count": 1, "text_span": "Levee broke around 1 a.m. Saturday.", "notes": ""}}, {"type": "Feature", "geometry": {"type": "Point", "coordinates": [-96.28904, 43.20258]}, "properties": {"impact_id": "10e4d883-d11b-55ea-bedc-4979f59d3348", "episode_id": "191899_0", "event_id": "", "source_type": "local_news", "source_ref": "https://www.ktiv.com/2024/06/22/emergency-evacuation-issued-city-rock-valley-ia-due-rising-floodwaters/", "pub_date": "2024-06-22", "start_date": "2024-06-22", "end_date": "2024-06-23", "date_precision": "range", "location_name": "Rock Valley, Sioux County, IA", "location_raw": "citywide utilities", "geom_type": "place_centroid", "admin_fips": "19167", "huc8": "", "impact_type": "infrastructure", "quantity": "", "quantity_unit": "", "severity": 2, "confidence": "A", "flood_type": "river", "mention_count": 1, "text_span": "City without power and water.", "notes": ""}}, {"type": "Feature", "geometry": {"type": "Point", "coordinates": [-96.28904, 43.20258]}, "properties": {"impact_id": "094d259b-d210-5e4d-9b6b-a0da7560fa06", "episode_id": "191899_0", "event_id": "", "source_type": "local_news", "source_ref": "https://www.ktiv.com/2024/06/22/emergency-evacuation-issued-city-rock-valley-ia-due-rising-floodwaters/", "pub_date": "2024-06-22", "start_date": "2024-06-22", "end_date": "2024-06-22", "date_precision": "day", "location_name": "Rock Valley, Sioux County, IA", "location_raw": "Rock Valley", "geom_type": "place_centroid", "admin_fips": "19167", "huc8": "", "impact_type": "rescue", "quantity": "20", "quantity_unit": "rescues", "severity": 2, "confidence": "A", "flood_type": "river", "mention_count": 1, "text_span": "Approximately 20 rescues conducted; crews from Sioux City Fire Rescue and Iowa Task Force 1 deployed; trucks, boats, and tractors used.", "notes": "All rescue calls completed by 3:30 p.m. Saturday"}}, {"type": "Feature", "geometry": {"type": "Point", "coordinates": [-95.55216, 42.7495]}, "properties": {"impact_id": "11111a8e-3593-5acf-b8bd-025d1ce95136", "episode_id": "191899_0", "event_id": "", "source_type": "agency_web", "source_ref": "https://www.weather.gov/fsd/20240620-22-HeavyRain-Flooding", "pub_date": "", "start_date": "2024-06-22", "end_date": "2024-06-26", "date_precision": "range", "location_name": "Cherokee, Cherokee County, IA", "location_raw": "Little Sioux River at Cherokee", "geom_type": "place_centroid", "admin_fips": "19035", "huc8": "", "impact_type": "river_overbank", "quantity": "", "quantity_unit": "", "severity": 2, "confidence": "A", "flood_type": "river", "mention_count": 1, "text_span": "Little Sioux River at Spencer and Cherokee: stages estimated via high water mark due to data outages.", "notes": "Record crest; gauge outage during peak"}}, {"type": "Feature", "geometry": {"type": "Point", "coordinates": [-96.28904, 43.20258]}, "properties": {"impact_id": "4b940ecd-ea51-58b0-a5ca-80f3652ec0a7", "episode_id": "191899_0", "event_id": "", "source_type": "local_news", "source_ref": "https://www.ktiv.com/2024/06/22/emergency-evacuation-issued-city-rock-valley-ia-due-rising-floodwaters/", "pub_date": "2024-06-22", "start_date": "2024-06-22", "end_date": "2024-06-22", "date_precision": "day", "location_name": "Rock Valley, Sioux County, IA", "location_raw": "Rock River at Rock Valley", "geom_type": "place_centroid", "admin_fips": "19167", "huc8": "", "impact_type": "river_overbank", "quantity": "22", "quantity_unit": "feet stage", "severity": 3, "confidence": "A", "flood_type": "river", "mention_count": 1, "text_span": "The river rose to historic levels that we've never seen here before; river reached 22 feet, previous 2014 flood was approximately 16 feet.", "notes": ""}}, {"type": "Feature", "geometry": {"type": "Point", "coordinates": [-90.60395, 41.55682]}, "properties": {"impact_id": "05d1a5f3-63ae-5daf-8276-503b3f4d8693", "episode_id": "205257_0", "event_id": "", "source_type": "agency_web", "source_ref": "https://www.weather.gov/dvn/summary_071125", "pub_date": "", "start_date": "2025-07-11", "end_date": "2025-07-12", "date_precision": "range", "location_name": "Davenport, Scott County, IA", "location_raw": "apartments along 35th Street near Duck Creek", "geom_type": "place_centroid", "admin_fips": "19163", "huc8": "", "impact_type": "home_flooded", "quantity": "", "quantity_unit": "", "severity": 2, "confidence": "A", "flood_type": "flash", "mention_count": 1, "text_span": "Multiple apartments along 35th Street near Duck Creek had their lowest level completely flooded.", "notes": ""}}, {"type": "Feature", "geometry": {"type": "Point", "coordinates": [-90.60395, 41.55682]}, "properties": {"impact_id": "58d5af9f-fd09-534a-9cbe-fb1297eef4b8", "episode_id": "205257_0", "event_id": "", "source_type": "agency_web", "source_ref": "https://www.weather.gov/dvn/summary_071125", "pub_date": "", "start_date": "2025-07-11", "end_date": "2025-07-12", "date_precision": "range", "location_name": "Davenport, Scott County, IA", "location_raw": "Duck Creek at Pine Street; Goose Creek at West 61st Street", "geom_type": "place_centroid", "admin_fips": "19163", "huc8": "", "impact_type": "river_overbank", "quantity": "", "quantity_unit": "", "severity": 1, "confidence": "A", "flood_type": "flash", "mention_count": 1, "text_span": "Duck Creek completely out of banks at Pine Street; Goose Creek out of banks on West 61st Street.", "notes": ""}}, {"type": "Feature", "geometry": {"type": "Point", "coordinates": [-90.60395, 41.55682]}, "properties": {"impact_id": "72acb8f1-7c88-52a8-8844-19ffc9644af8", "episode_id": "205257_0", "event_id": "", "source_type": "agency_web", "source_ref": "https://www.weather.gov/dvn/summary_071125", "pub_date": "", "start_date": "2025-07-11", "end_date": "2025-07-12", "date_precision": "range", "location_name": "Davenport, Scott County, IA", "location_raw": "35th Street just west of Harrison Street", "geom_type": "place_centroid", "admin_fips": "19163", "huc8": "", "impact_type": "road_flooded", "quantity": "3", "quantity_unit": "feet depth", "severity": 2, "confidence": "A", "flood_type": "flash", "mention_count": 1, "text_span": "Water over 3 feet deep on 35th street just west of Harrison Street.", "notes": ""}}, {"type": "Feature", "geometry": {"type": "Point", "coordinates": [-90.70726, 42.4989]}, "properties": {"impact_id": "630193ee-bc93-5417-a0ae-2c110f1ec981", "episode_id": "205257_0", "event_id": "", "source_type": "agency_web", "source_ref": "https://www.weather.gov/dvn/summary_071125", "pub_date": "", "start_date": "2025-07-11", "end_date": "2025-07-11", "date_precision": "day", "location_name": "Dubuque, Dubuque County, IA", "location_raw": "17th and Locust Streets; near Linwood Cemetery", "geom_type": "place_centroid", "admin_fips": "19061", "huc8": "", "impact_type": "road_flooded", "quantity": "", "quantity_unit": "", "severity": 2, "confidence": "A", "flood_type": "flash", "mention_count": 1, "text_span": "Water curb deep across the entire road at 17th and Locust Streets; impassable roads due to water near Linwood Cemetery.", "notes": ""}}, {"type": "Feature", "geometry": {"type": "Point", "coordinates": [-90.24282, 41.84237]}, "properties": {"impact_id": "537c17d0-d8d2-5ffc-b2ec-e78d051d9fc8", "episode_id": "205257_0", "event_id": "", "source_type": "agency_web", "source_ref": "https://www.weather.gov/dvn/summary_071125", "pub_date": "", "start_date": "2025-07-11", "end_date": "2025-07-12", "date_precision": "range", "location_name": "Clinton, Clinton County, IA", "location_raw": "roadways in Clinton", "geom_type": "place_centroid", "admin_fips": "19045", "huc8": "", "impact_type": "road_flooded", "quantity": "", "quantity_unit": "", "severity": 2, "confidence": "A", "flood_type": "flash", "mention_count": 1, "text_span": "1 to 2 feet of water over the roadways.", "notes": ""}}, {"type": "Feature", "geometry": {"type": "Point", "coordinates": [-90.77994, 42.51195]}, "properties": {"impact_id": "071e5986-48a1-5ca7-8cc0-dafea801b489", "episode_id": "205257_0", "event_id": "", "source_type": "agency_web", "source_ref": "https://www.weather.gov/dvn/summary_071125", "pub_date": "", "start_date": "2025-07-11", "end_date": "2025-07-11", "date_precision": "day", "location_name": "Asbury, Dubuque County, IA", "location_raw": "Asbury", "geom_type": "place_centroid", "admin_fips": "19061", "huc8": "", "impact_type": "road_flooded", "quantity": "", "quantity_unit": "", "severity": 2, "confidence": "B", "flood_type": "flash", "mention_count": 1, "text_span": "Asbury, IA: significant flash flooding; 2.75 inches of rain.", "notes": ""}}, {"type": "Feature", "geometry": {"type": "Point", "coordinates": [-90.70726, 42.4989]}, "properties": {"impact_id": "dba112d7-971a-5e08-a4a4-1041733a6620", "episode_id": "205257_0", "event_id": "", "source_type": "local_news", "source_ref": "https://www.kcrg.com/2025/07/12/streets-flood-like-river-dubuque-after-heavy-rains-cars-damaged/", "pub_date": "2025-07-11", "start_date": "2025-07-11", "end_date": "2025-07-11", "date_precision": "day", "location_name": "Dubuque, Dubuque County, IA", "location_raw": "West Locust Street", "geom_type": "place_centroid", "admin_fips": "19061", "huc8": "", "impact_type": "road_flooded", "quantity": "2", "quantity_unit": "vehicles", "severity": 2, "confidence": "A", "flood_type": "flash", "mention_count": 1, "text_span": "Streets flooded like a river on West Locust Street; one resident's car flooded completely, a second vehicle also sustained damage.", "notes": "City engineer cited chronic storm water infrastructure issues in the neighborhood"}}, {"type": "Feature", "geometry": {"type": "Point", "coordinates": [-91.90315, 42.46219]}, "properties": {"impact_id": "4d659cdd-e9af-5d24-836d-5f0efc6f34e3", "episode_id": "205435_0", "event_id": "", "source_type": "agency_web", "source_ref": "https://www.weather.gov/dvn/summary_071125", "pub_date": "", "start_date": "2025-07-11", "end_date": "2025-07-11", "date_precision": "day", "location_name": "Independence, Buchanan County, IA", "location_raw": "streets in Independence", "geom_type": "place_centroid", "admin_fips": "19019", "huc8": "", "impact_type": "road_closed", "quantity": "", "quantity_unit": "", "severity": 2, "confidence": "A", "flood_type": "flash", "mention_count": 1, "text_span": "Street/road flooded; street/road closed; vehicles stranded; water halfway up the tires on cars.", "notes": ""}}, {"type": "Feature", "geometry": {"type": "Point", "coordinates": [-92.02621, 42.16311]}, "properties": {"impact_id": "3cb5e41b-f4d6-58be-8638-2651e6bf8bb4", "episode_id": "205435_0", "event_id": "", "source_type": "agency_web", "source_ref": "https://www.weather.gov/dvn/summary_071125", "pub_date": "", "start_date": "2025-07-11", "end_date": "2025-07-11", "date_precision": "day", "location_name": "Vinton, Benton County, IA", "location_raw": "streets in Vinton", "geom_type": "place_centroid", "admin_fips": "19011", "huc8": "", "impact_type": "road_flooded", "quantity": "", "quantity_unit": "", "severity": 1, "confidence": "A", "flood_type": "flash", "mention_count": 1, "text_span": "Vinton, IA: street flooding reported.", "notes": ""}}]}