{"type": "FeatureCollection", "features": [{"type": "Feature", "geometry": {"type": "Polygon", "coordinates": [[[-93.32861399980254, 41.50782400022078], [-92.75650799980052, 41.50879399985983], [-92.75706799966716, 41.60141099999962], [-92.7667589997994, 41.60135500005628], [-92.76599899991623, 41.862372999759025], [-93.34793300031784, 41.8631039999129], [-93.34868099960714, 41.60099900009549], [-93.32868099974968, 41.60114799968782], [-93.32861399980254, 41.50782400022078]]]}, "properties": {"GEOID": "19099", "NAME": "Jasper County", "BASENAME": "Jasper", "county_fips": "19099", "episode_count": 1, "event_count": 8, "county_name": "JASPER", "svi_overall": 0.5714}}, {"type": "Feature", "geometry": {"type": "Polygon", "coordinates": [[[-95.85937699999604, 42.909096999855045], [-96.53845799975002, 42.90877100018984], [-96.53660099969974, 42.90541399968862], [-96.54293000008394, 42.90375600008505], [-96.52887299992298, 42.89792599986456], [-96.52532799987684, 42.89166100018776], [-96.53983799977432, 42.889803000264756], [-96.53769500039209, 42.886747999754256], [-96.54348499992774, 42.883765000270515], [-96.53767000027773, 42.87846200028093], [-96.54714600032484, 42.873955000158595], [-96.5465730000394, 42.863913999691725], [-96.55045100017148, 42.863547999750125], [-96.54145499962509, 42.85686800015504], [-96.54526199961207, 42.84985400024025], [-96.55608300042167, 42.84923099982213], [-96.54859800031916, 42.8408909997184], [-96.55056199960126, 42.83717800011513], [-96.5609440000197, 42.83913399972301], [-96.56360399961089, 42.82817400024241], [-96.56838200026657, 42.837781000230024], [-96.57816399973711, 42.83472700009452], [-96.58137800024546, 42.83781000028936], [-96.57765400009917, 42.827791000320815], [-96.5858079998483, 42.82377599991174], [-96.58410899998175, 42.81900499968889], [-96.59594500004438, 42.8149540002767], [-96.59046500013014, 42.80829700014343], [-96.59407600029853, 42.79823499979448], [-96.59968300043438, 42.79843500020854], [-96.59521399957518, 42.79289600011976], [-96.60500699981469, 42.79169599984238], [-96.60444000027535, 42.78311000015635], [-96.6195030003668, 42.78404299979871], [-96.6263609997572, 42.7714029999775], [-96.63638199960234, 42.769740000015034], [-96.62724299983914, 42.75441300011322], [-96.6228330003278, 42.75839800004262], [-96.61926900001507, 42.75475199981733], [-96.63001899978124, 42.75069599999104], [-96.62942899977739, 42.74364100014748], [-96.6356119996734, 42.74189399987402], [-96.63058600021891, 42.73528600013895], [-96.6394839999577, 42.73696299996138], [-96.6305219997465, 42.73023400027937], [-96.6341889999914, 42.724305999951], [-96.62441400019355, 42.72521199985366], [-96.62801100011825, 42.71779799982509], [-96.62440599979764, 42.71401100029873], [-96.6303529996921, 42.70568400021112], [-96.62395700025907, 42.7076000000434], [-96.61514800020873, 42.698433000167896], [-96.60559599999367, 42.70202000002263], [-96.60460299958365, 42.69847299979387], [-96.61208600003634, 42.695579999851795], [-96.59963700040362, 42.6988540001056], [-96.59361299961793, 42.68979399973134], [-96.59963900005344, 42.68689299976372], [-96.58984199961598, 42.69104099972532], [-96.58618600014005, 42.68317699980739], [-96.57518000028082, 42.682756999710925], [-96.57875700011404, 42.678122999945714], [-96.57205299981109, 42.676703999978], [-96.57847400025682, 42.67193199996838], [-96.5715669995643, 42.67089600005288], [-96.56696399970912, 42.67641699971938], [-96.55577000042723, 42.66420699984996], [-96.55938800026831, 42.65782899977707], [-96.54121899962355, 42.65991600022803], [-96.53747199991102, 42.645951000191914], [-96.52663000008333, 42.64145000006005], [-96.5251429999289, 42.634746000272465], [-96.51515800006878, 42.62836999997682], [-96.51903899967559, 42.618986000141696], [-96.53131199958122, 42.61664699988562], [-96.52993699957979, 42.61047100015156], [-96.51766299984925, 42.61664699988562], [-96.51001500043843, 42.61321100006063], [-96.50108199964124, 42.58931100009633], [-96.49127099985837, 42.586805999858846], [-96.49565399960552, 42.57954100002068], [-96.48579699979193, 42.57501999988099], [-96.49877600005239, 42.56104300032481], [-95.85994899955827, 42.56061999996947], [-95.85937699999604, 42.909096999855045]]]}, "properties": {"GEOID": "19149", "NAME": "Plymouth County", "BASENAME": "Plymouth", "county_fips": "19149", "episode_count": 4, "event_count": 13, "county_name": "PLYMOUTH", "svi_overall": 0.2143}}, {"type": "Feature", "geometry": {"type": "Polygon", "coordinates": [[[-95.15472199986071, 41.50521099998564], [-95.9961940002488, 41.50695999968975], [-96.01954300033385, 41.491591999726126], [-96.01783600007141, 41.483583999973554], [-96.00660900027924, 41.473038000092785], [-95.98427899964514, 41.4709390000534], [-95.96504200004391, 41.46321200023328], [-95.93634000026624, 41.46530399985403], [-95.91998900021198, 41.452603999811274], [-95.9208570000502, 41.44342800000076], [-95.93277799960333, 41.43081499977326], [-95.92967699997119, 41.411071000067814], [-95.93769400035127, 41.39477000013392], [-95.92968100016915, 41.36705799971541], [-95.9369229996991, 41.359246999755484], [-95.95395300034401, 41.35377599996302], [-95.95713699981683, 41.345902000008046], [-95.94653199981559, 41.33313900027469], [-95.92583499982412, 41.321579999743], [-95.88291600005189, 41.31664699968318], [-95.87418399999446, 41.30792400007967], [-95.87114100008863, 41.29669000019619], [-95.87748100034351, 41.28458300008689], [-95.90283999974139, 41.27437399969438], [-95.91258100010236, 41.27952700008588], [-95.90614399976312, 41.28748799990213], [-95.90589900043906, 41.3010379998699], [-95.92764199964567, 41.2984399999916], [-95.92864599992635, 41.28133200018008], [-95.914090999823, 41.27242799989608], [-95.92230400002167, 41.26301999980445], [-95.91070300013568, 41.236230000191334], [-95.91297699993747, 41.225895000057065], [-95.92718300006136, 41.20897100023452], [-95.92725000000851, 41.19708600003502], [-95.92168899990342, 41.188746999887385], [-95.90757999986393, 41.18436799996893], [-95.86165900019377, 41.18796499999404], [-95.8421880002408, 41.17742100023218], [-95.84695699977733, 41.166603999808295], [-95.87057399965097, 41.167783999798694], [-95.88052099987628, 41.159873999927825], [-95.15585099981485, 41.15923599978117], [-95.15472199986071, 41.50521099998564]]]}, "properties": {"GEOID": "19155", "NAME": "Pottawattamie County", "BASENAME": "Pottawattamie", "county_fips": "19155", "episode_count": 5, "event_count": 8, "county_name": "POTTAWATTAMIE", "svi_overall": 0.949}}, {"type": "Feature", "geometry": {"type": "Polygon", "coordinates": [[[-92.63909100025393, 40.898886000181946], [-92.17907199967209, 40.899719999856686], [-92.17997399984553, 41.16266200033138], [-92.64037599984368, 41.161402000098356], [-92.63909100025393, 40.898886000181946]]]}, "properties": {"GEOID": "19179", "NAME": "Wapello County", "BASENAME": "Wapello", "county_fips": "19179", "episode_count": 1, "event_count": 2, "county_name": "WAPELLO", "svi_overall": 1.0}}, {"type": "Feature", "geometry": {"type": "Polygon", "coordinates": [[[-91.60705899955651, 42.64397300002192], [-92.08166099983077, 42.64205600026858], [-92.08144599974563, 42.46819200002311], [-92.06418699967017, 42.468220999982314], [-92.06476599980338, 42.29725899999535], [-91.59698099980996, 42.29640800016206], [-91.59739699973657, 42.469242000173395], [-91.6085080000761, 42.46927499996079], [-91.60705899955651, 42.64397300002192]]]}, "properties": {"GEOID": "19019", "NAME": "Buchanan County", "BASENAME": "Buchanan", "county_fips": "19019", "episode_count": 4, "event_count": 6, "county_name": "BUCHANAN", "svi_overall": 0.3469}}, {"type": "Feature", "geometry": {"type": "Polygon", "coordinates": [[[-90.64702999979704, 42.54435799997011], [-90.65912699997557, 42.557899999857696], [-90.66152700017406, 42.56799899980691], [-90.68697500015872, 42.591774000168925], [-90.70267099991176, 42.63075600009904], [-90.73113199966502, 42.64343699973763], [-90.89695100016945, 42.675081999797854], [-90.89741499977661, 42.64571399988072], [-91.13276599997705, 42.64584400002662], [-91.13007899972338, 42.29576099968874], [-90.66555099989601, 42.29469900027478], [-90.66502899966419, 42.38215500031303], [-90.47379800005845, 42.38145800028648], [-90.5550179996791, 42.416138000071726], [-90.56043900004211, 42.43289699973839], [-90.56796799962724, 42.44038900001316], [-90.62432799961728, 42.45890399975577], [-90.65111999964124, 42.475188999721354], [-90.65646200036153, 42.49096199998201], [-90.63583899998989, 42.51775500007137], [-90.64702999979704, 42.54435799997011]]]}, "properties": {"GEOID": "19061", "NAME": "Dubuque County", "BASENAME": "Dubuque", "county_fips": "19061", "episode_count": 8, "event_count": 17, "county_name": "DUBUQUE", "svi_overall": 0.6837}}, {"type": "Feature", "geometry": {"type": "Polygon", "coordinates": [[[-92.75650799980052, 41.50879399985983], [-92.29749400022258, 41.509790000168735], [-92.29816399969408, 41.86277900011305], [-92.76599899991623, 41.862372999759025], [-92.7667589997994, 41.60135500005628], [-92.75706799966716, 41.60141099999962], [-92.75650799980052, 41.50879399985983]]]}, "properties": {"GEOID": "19157", "NAME": "Poweshiek County", "BASENAME": "Poweshiek", "county_fips": "19157", "episode_count": 1, "event_count": 2, "county_name": "POWESHIEK", "svi_overall": 0.6429}}, {"type": "Feature", "geometry": {"type": "Polygon", "coordinates": [[[-94.16442800000114, 41.86324299984584], [-93.69803200025285, 41.86337000011719], [-93.69838999955482, 42.20933899967681], [-94.16470400018568, 42.20992000017916], [-94.16442800000114, 41.86324299984584]]]}, "properties": {"GEOID": "19015", "NAME": "Boone County", "BASENAME": "Boone", "county_fips": "19015", "episode_count": 3, "event_count": 3, "county_name": "BOONE", "svi_overall": 0.102}}, {"type": "Feature", "geometry": {"type": "Polygon", "coordinates": [[[-92.41023299957091, 41.161941999783046], [-91.94557099984925, 41.16357800002165], [-91.94604299985237, 41.51074900017825], [-92.41199500008496, 41.50954799978603], [-92.41023299957091, 41.161941999783046]]]}, "properties": {"GEOID": "19107", "NAME": "Keokuk County", "BASENAME": "Keokuk", "county_fips": "19107", "episode_count": 1, "event_count": 1, "county_name": "KEOKUK", "svi_overall": 0.2857}}, {"type": "Feature", "geometry": {"type": "Polygon", "coordinates": [[[-94.44313700036496, 43.25501399989013], [-94.44285000030978, 43.500421999837044], [-94.91457399963633, 43.50087200025381], [-94.91372300041486, 43.25505400024559], [-94.44313700036496, 43.25501399989013]]]}, "properties": {"GEOID": "19063", "NAME": "Emmet County", "BASENAME": "Emmet", "county_fips": "19063", "episode_count": 4, "event_count": 4, "county_name": "EMMET", "svi_overall": 0.6939}}, {"type": "Feature", "geometry": {"type": "Polygon", "coordinates": [[[-94.91372300041486, 43.25505400024559], [-94.91458200003227, 43.50085300008683], [-95.38778699966547, 43.50022599969297], [-95.38807799991861, 43.25522099992452], [-94.91372300041486, 43.25505400024559]]]}, "properties": {"GEOID": "19059", "NAME": "Dickinson County", "BASENAME": "Dickinson", "county_fips": "19059", "episode_count": 14, "event_count": 24, "county_name": "DICKINSON", "svi_overall": 0.2347}}, {"type": "Feature", "geometry": {"type": "Polygon", "coordinates": [[[-91.36326300025215, 42.29644499993172], [-91.83108900025346, 42.29906300004358], [-91.83526199993833, 42.03695400019708], [-91.83137899978335, 41.86185099991235], [-91.36622099976915, 41.86006900028354], [-91.36326300025215, 42.29644499993172]]]}, "properties": {"GEOID": "19113", "NAME": "Linn County", "BASENAME": "Linn", "county_fips": "19113", "episode_count": 6, "event_count": 9, "county_name": "LINN", "svi_overall": 0.5816}}, {"type": "Feature", "geometry": {"type": "Polygon", "coordinates": [[[-96.5649550002212, 43.26027700025033], [-95.86191399956358, 43.25756599989377], [-95.86094699999114, 43.500036000282456], [-96.59919100033979, 43.500456000202874], [-96.59901300006456, 43.49534800000789], [-96.59021099968692, 43.49412299993167], [-96.58455099984764, 43.48909900028733], [-96.5867870000146, 43.483833000090726], [-96.58108199996946, 43.481497999829365], [-96.58689199959659, 43.47787299990736], [-96.58241900033606, 43.466706000233074], [-96.58943599973512, 43.46645600024877], [-96.6030510000302, 43.45082799997913], [-96.59414099969754, 43.433823999711684], [-96.57028899964725, 43.428546999728695], [-96.57355500003415, 43.41896900003678], [-96.54840800034836, 43.40366199982585], [-96.54442899993394, 43.39618900021794], [-96.52524199966311, 43.396072000113286], [-96.5217340003252, 43.386862000180415], [-96.5220590000152, 43.37218999968564], [-96.53096099995194, 43.36843299987502], [-96.52511399961658, 43.353578999858854], [-96.52771600037975, 43.34829500029923], [-96.52427900028864, 43.34742200005331], [-96.53508699978114, 43.33650199986638], [-96.52405900018061, 43.31138099971885], [-96.53190499995814, 43.30423299978331], [-96.53014499999225, 43.30000000014254], [-96.55220299974145, 43.29283399993901], [-96.57370599964689, 43.29902600016391], [-96.58927400025173, 43.295265000144134], [-96.57914499955324, 43.29375699983858], [-96.57759700019777, 43.278964000271856], [-96.58614900033014, 43.274479999782066], [-96.58534099986805, 43.26886900014295], [-96.5649550002212, 43.26027700025033]]]}, "properties": {"GEOID": "19119", "NAME": "Lyon County", "BASENAME": "Lyon", "county_fips": "19119", "episode_count": 5, "event_count": 13, "county_name": "LYON", "svi_overall": 0.0714}}, {"type": "Feature", "geometry": {"type": "Polygon", "coordinates": [[[-93.97158300001938, 42.55813899991704], [-93.49948499970067, 42.557699999918455], [-93.49861699986245, 42.90851199993116], [-93.97123800023788, 42.90776199973495], [-93.97158300001938, 42.55813899991704]]]}, "properties": {"GEOID": "19197", "NAME": "Wright County", "BASENAME": "Wright", "county_fips": "19197", "episode_count": 2, "event_count": 5, "county_name": "WRIGHT", "svi_overall": 0.7347}}, {"type": "Feature", "geometry": {"type": "Polygon", "coordinates": [[[-94.01418899979714, 41.15676199967304], [-94.47060300005838, 41.15756600024664], [-94.47077899978547, 40.89950199984956], [-94.01480300009047, 40.897030999961274], [-94.01418899979714, 41.15676199967304]]]}, "properties": {"GEOID": "19175", "NAME": "Union County", "BASENAME": "Union", "county_fips": "19175", "episode_count": 0, "event_count": 0, "county_name": "Union County", "svi_overall": 0.8878}}, {"type": "Feature", "geometry": {"type": "Polygon", "coordinates": [[[-95.85994899955827, 42.56061999996947], [-95.38801000014654, 42.56174199974679], [-95.38818199967567, 42.90989699978314], [-95.85937699999604, 42.909096999855045], [-95.85994899955827, 42.56061999996947]]]}, "properties": {"GEOID": "19035", "NAME": "Cherokee County", "BASENAME": "Cherokee", "county_fips": "19035", "episode_count": 5, "event_count": 7, "county_name": "CHEROKEE", "svi_overall": 0.4388}}, {"type": "Feature", "geometry": {"type": "Polygon", "coordinates": [[[-93.49948499970067, 42.557699999918455], [-93.49909800008639, 42.470974999891894], [-93.46263500002166, 42.47080200019046], [-93.46304299955234, 42.20930200000666], [-93.00167399998176, 42.20926699977722], [-93.0029019996701, 42.470637999694944], [-93.02711500029372, 42.47077599976885], [-93.02699999976768, 42.55680999989302], [-93.49948499970067, 42.557699999918455]]]}, "properties": {"GEOID": "19083", "NAME": "Hardin County", "BASENAME": "Hardin", "county_fips": "19083", "episode_count": 1, "event_count": 2, "county_name": "HARDIN", "svi_overall": 0.602}}, {"type": "Feature", "geometry": {"type": "Polygon", "coordinates": [[[-91.37209499986866, 40.812631000140854], [-91.37029800009287, 41.16124699976776], [-91.7160410000449, 41.16287399971804], [-91.7187869998498, 40.81354400019244], [-91.37209499986866, 40.812631000140854]]]}, "properties": {"GEOID": "19087", "NAME": "Henry County", "BASENAME": "Henry", "county_fips": "19087", "episode_count": 0, "event_count": 0, "county_name": "Henry County", "svi_overall": 0.6122}}, {"type": "Feature", "geometry": {"type": "Polygon", "coordinates": [[[-94.92758700023198, 41.15850799978938], [-94.92845900026818, 40.90065299980212], [-94.47077899978547, 40.89950199984956], [-94.47060300005838, 41.15756600024664], [-94.92758700023198, 41.15850799978938]]]}, "properties": {"GEOID": "19003", "NAME": "Adams County", "BASENAME": "Adams", "county_fips": "19003", "episode_count": 0, "event_count": 0, "county_name": "Adams County", "svi_overall": 0.398}}, {"type": "Feature", "geometry": {"type": "Polygon", "coordinates": [[[-91.61083499958134, 43.50065700003868], [-92.07985900003209, 43.5005869997277], [-92.08114600016995, 43.0827939998377], [-91.60530699998654, 43.081653000081424], [-91.60399200025957, 43.34204699971088], [-91.61104600036687, 43.342081000283166], [-91.61083499958134, 43.50065700003868]]]}, "properties": {"GEOID": "19191", "NAME": "Winneshiek County", "BASENAME": "Winneshiek", "county_fips": "19191", "episode_count": 5, "event_count": 7, "county_name": "WINNESHIEK", "svi_overall": 0.1531}}, {"type": "Feature", "geometry": {"type": "Polygon", "coordinates": [[[-94.74487600007326, 41.86239400030194], [-94.7442040000536, 41.60218500002106], [-94.7007449996079, 41.602183999806606], [-94.70062900015526, 41.504148000209085], [-94.24159299993771, 41.50367899995223], [-94.24135600011125, 41.60097100028698], [-94.28005699999275, 41.60131199967094], [-94.28033999984996, 41.86299900030232], [-94.74487600007326, 41.86239400030194]]]}, "properties": {"GEOID": "19077", "NAME": "Guthrie County", "BASENAME": "Guthrie", "county_fips": "19077", "episode_count": 3, "event_count": 4, "county_name": "GUTHRIE", "svi_overall": 0.0612}}, {"type": "Feature", "geometry": {"type": "Polygon", "coordinates": [[[-91.9457719996907, 41.163724000311674], [-91.48571700002216, 41.16240499967681], [-91.48386300034494, 41.428193999972834], [-91.49071099968961, 41.440426999740396], [-91.50240100016235, 41.44839099997639], [-91.49877300027553, 41.45921300011096], [-91.51603099962774, 41.46822300002011], [-91.51294800043728, 41.476315000038234], [-91.50249900007165, 41.47667499970613], [-91.50131599969083, 41.48734000033484], [-91.50374500020165, 41.49336200006927], [-91.51067399973716, 41.494688999945474], [-91.50735200017209, 41.50230799982369], [-91.51750000023883, 41.49698700029662], [-91.52793500036074, 41.507763000225225], [-91.51982799956899, 41.511010000069255], [-91.94604299985237, 41.51074900017825], [-91.9457719996907, 41.163724000311674]]]}, "properties": {"GEOID": "19183", "NAME": "Washington County", "BASENAME": "Washington", "county_fips": "19183", "episode_count": 1, "event_count": 2, "county_name": "WASHINGTON", "svi_overall": 0.5}}, {"type": "Feature", "geometry": {"type": "Polygon", "coordinates": [[[-92.55421100006109, 42.90711199994757], [-92.55449200026848, 42.64231400014272], [-92.08166099983077, 42.64205600026858], [-92.08156799994435, 42.907012999753995], [-92.55421100006109, 42.90711199994757]]]}, "properties": {"GEOID": "19017", "NAME": "Bremer County", "BASENAME": "Bremer", "county_fips": "19017", "episode_count": 1, "event_count": 1, "county_name": "BREMER", "svi_overall": 0.0408}}, {"type": "Feature", "geometry": {"type": "Polygon", "coordinates": [[[-95.38807799991861, 43.25522099992452], [-95.86191399956358, 43.25756599989377], [-95.85937699999604, 42.909096999855045], [-95.38818199967567, 42.90989699978314], [-95.38807799991861, 43.25522099992452]]]}, "properties": {"GEOID": "19141", "NAME": "O'Brien County", "BASENAME": "O'Brien", "county_fips": "19141", "episode_count": 10, "event_count": 15, "county_name": "O'BRIEN", "svi_overall": 0.8061}}, {"type": "Feature", "geometry": {"type": "Polygon", "coordinates": [[[-92.08097600029065, 43.2129469999467], [-92.07980200013067, 43.500621000000606], [-92.5531280001377, 43.5002310001667], [-92.5543809999404, 43.212813000081866], [-92.08097600029065, 43.2129469999467]]]}, "properties": {"GEOID": "19089", "NAME": "Howard County", "BASENAME": "Howard", "county_fips": "19089", "episode_count": 2, "event_count": 2, "county_name": "HOWARD", "svi_overall": 0.1735}}, {"type": "Feature", "geometry": {"type": "Polygon", "coordinates": [[[-95.55727699971439, 41.863449000095514], [-95.55814299990281, 41.60238299986316], [-95.49779299962769, 41.602333000021424], [-95.4979969998422, 41.506073999953145], [-95.04076999999432, 41.50468999986504], [-95.04074800025303, 41.602152000324196], [-95.09251999955818, 41.60205500022182], [-95.09286100004005, 41.86337400012693], [-95.55727699971439, 41.863449000095514]]]}, "properties": {"GEOID": "19165", "NAME": "Shelby County", "BASENAME": "Shelby", "county_fips": "19165", "episode_count": 0, "event_count": 0, "county_name": "Shelby County", "svi_overall": 0.0816}}, {"type": "Feature", "geometry": {"type": "Polygon", "coordinates": [[[-92.29879200023112, 42.29752699969099], [-92.29816399969408, 41.86277900011305], [-91.83137899978335, 41.86185099991235], [-91.83526199993833, 42.03695400019708], [-91.83108900025346, 42.29906300004358], [-92.29879200023112, 42.29752699969099]]]}, "properties": {"GEOID": "19011", "NAME": "Benton County", "BASENAME": "Benton", "county_fips": "19011", "episode_count": 3, "event_count": 3, "county_name": "BENTON", "svi_overall": 0.0102}}, {"type": "Feature", "geometry": {"type": "Polygon", "coordinates": [[[-92.41023299957091, 41.161941999783046], [-92.41199500008496, 41.50954799978603], [-92.87142100028986, 41.50852200030242], [-92.8697709999288, 41.16106599977733], [-92.41023299957091, 41.161941999783046]]]}, "properties": {"GEOID": "19123", "NAME": "Mahaska County", "BASENAME": "Mahaska", "county_fips": "19123", "episode_count": 1, "event_count": 1, "county_name": "MAHASKA", "svi_overall": 0.6327}}, {"type": "Feature", "geometry": {"type": "Polygon", "coordinates": [[[-93.3278859997064, 41.16065899989734], [-92.8697709999288, 41.16106599977733], [-92.87142100028986, 41.50852200030242], [-93.32861399980254, 41.50782400022078], [-93.3278859997064, 41.16065899989734]]]}, "properties": {"GEOID": "19125", "NAME": "Marion County", "BASENAME": "Marion", "county_fips": "19125", "episode_count": 2, "event_count": 4, "county_name": "MARION", "svi_overall": 0.3673}}, {"type": "Feature", "geometry": {"type": "Polygon", "coordinates": [[[-94.91448499994787, 42.56030900009074], [-95.38801000014654, 42.56174199974679], [-95.38744500025702, 42.474796000248155], [-95.32235700040751, 42.474736999957365], [-95.32349700023231, 42.210932000330544], [-94.85841200001302, 42.20969200020565], [-94.85668899985704, 42.47399600014922], [-94.9144869995977, 42.474190000138464], [-94.91448499994787, 42.56030900009074]]]}, "properties": {"GEOID": "19161", "NAME": "Sac County", "BASENAME": "Sac", "county_fips": "19161", "episode_count": 0, "event_count": 0, "county_name": "Sac County", "svi_overall": 0.2653}}, {"type": "Feature", "geometry": {"type": "Polygon", "coordinates": [[[-91.44124300032348, 40.386255000044116], [-91.41942200040073, 40.37826400032657], [-91.39161299967732, 40.38403800032948], [-91.3769110001592, 40.39077599977207], [-91.37292099987413, 40.39910800026481], [-91.37282600033787, 40.41427900017318], [-91.3817690002825, 40.44255500013798], [-91.36646299961849, 40.478869000138126], [-91.364210999558, 40.50004300023655], [-91.38185700014606, 40.52824699973661], [-91.40412499995753, 40.53912699977687], [-91.40685099967095, 40.54755699981556], [-91.4014820000848, 40.55945799977442], [-91.37975200039865, 40.57445000013061], [-91.35987300001669, 40.60180500005842], [-91.30907699960648, 40.62543299988981], [-91.25307399999181, 40.63796200011664], [-91.18529499969067, 40.637803000005256], [-91.12392799961442, 40.66915199966745], [-91.11246700036882, 40.69630100010893], [-91.15063599997278, 40.70620300015253], [-91.16256300027199, 40.722720999877296], [-91.17652099980045, 40.721092000000084], [-91.1800380002575, 40.708302999778596], [-91.19682000030699, 40.719222000052326], [-91.20955000014709, 40.71399299995928], [-91.20710200026802, 40.72111599986259], [-91.21575700033256, 40.73109400019687], [-91.23344900005304, 40.73754500006655], [-91.24771999957595, 40.75023400011542], [-91.28182799964803, 40.75368499971702], [-91.29339099989919, 40.77257700032361], [-91.31167400034678, 40.77214699966106], [-91.31884700027976, 40.77992099979987], [-91.34683199983195, 40.786473000127586], [-91.35074599994905, 40.79364200029047], [-91.36387199962428, 40.79066499998441], [-91.39353099982696, 40.80861800004631], [-91.40637100017025, 40.808709000033886], [-91.40945300043413, 40.8129050003312], [-91.7187869998498, 40.81354400019244], [-91.71676900014104, 40.598530000090335], [-91.68635699972786, 40.58087500004417], [-91.69158100044739, 40.562223000248764], [-91.68519599998669, 40.55509200008542], [-91.62007100032726, 40.54081699976456], [-91.62135300044226, 40.51007200019013], [-91.59081700018052, 40.49229200020862], [-91.57473399991488, 40.465655000138995], [-91.55269100023428, 40.45876900014962], [-91.52508999992332, 40.45784500034093], [-91.5232710004062, 40.45006100012647], [-91.53362299978912, 40.43832000015318], [-91.51913399980802, 40.432821999668235], [-91.52704300023306, 40.41821400011176], [-91.52461200007244, 40.41076499974858], [-91.49809299985996, 40.401925999988855], [-91.48848100026873, 40.40431699967791], [-91.49091200042936, 40.39298000009104], [-91.48525500006481, 40.38465700019551], [-91.48025100035164, 40.38178299970379], [-91.46355399979267, 40.38554699968635], [-91.4638950002745, 40.375658999712776], [-91.44874199977139, 40.37680399993735], [-91.44124300032348, 40.386255000044116]]]}, "properties": {"GEOID": "19111", "NAME": "Lee County", "BASENAME": "Lee", "county_fips": "19111", "episode_count": 4, "event_count": 9, "county_name": "LEE", "svi_overall": 0.7245}}, {"type": "Feature", "geometry": {"type": "Polygon", "coordinates": [[[-95.38496399986767, 40.90155000004066], [-95.8134649996484, 40.90169300029274], [-95.80937900000218, 40.89327900024909], [-95.8140200003905, 40.88180799990338], [-95.84252100032671, 40.8702659997407], [-95.84859000041993, 40.86106099968966], [-95.83718600017744, 40.83534700012046], [-95.84534199957639, 40.811323999846636], [-95.83452300021321, 40.78777799981269], [-95.83523200004278, 40.77915100003638], [-95.88152900035489, 40.75061100031151], [-95.88869700026501, 40.73629200002142], [-95.88317799999271, 40.71757899972919], [-95.85445600012355, 40.70416399970158], [-95.84231600028733, 40.67717099989065], [-95.82291300010642, 40.667240000001605], [-95.79548900024578, 40.66238399987266], [-95.77625099992132, 40.64746300010643], [-95.76892599965237, 40.62126400032692], [-95.74862600021923, 40.603354999832995], [-95.75314799988357, 40.592839999916826], [-95.76564500009518, 40.58520800014405], [-95.37392299984833, 40.58050300009157], [-95.3706180000017, 40.728241000106834], [-95.3852540002959, 40.728377999835914], [-95.38496399986767, 40.90155000004066]]]}, "properties": {"GEOID": "19071", "NAME": "Fremont County", "BASENAME": "Fremont", "county_fips": "19071", "episode_count": 2, "event_count": 2, "county_name": "FREMONT", "svi_overall": 0.051}}, {"type": "Feature", "geometry": {"type": "Polygon", "coordinates": [[[-94.44285000030978, 43.500421999837044], [-94.44295400006685, 42.90807299977105], [-93.97123800023788, 42.90776199973495], [-93.97076200003681, 43.49988599974245], [-94.44285000030978, 43.500421999837044]]]}, "properties": {"GEOID": "19109", "NAME": "Kossuth County", "BASENAME": "Kossuth", "county_fips": "19109", "episode_count": 6, "event_count": 9, "county_name": "KOSSUTH", "svi_overall": 0.5306}}, {"type": "Feature", "geometry": {"type": "Polygon", "coordinates": [[[-95.55814299990281, 41.60238299986316], [-95.55727699971439, 41.863449000095514], [-96.13901199992438, 41.86630100019031], [-96.11125199960478, 41.85022899970319], [-96.106565000084, 41.819613000228266], [-96.07629400013613, 41.80826800017147], [-96.06509800030612, 41.796350999815836], [-96.06637700004808, 41.78898100012895], [-96.07754600011393, 41.777822000232845], [-96.08089000031862, 41.75752600014354], [-96.1009810004127, 41.747572000306185], [-96.10638000013608, 41.73776200015972], [-96.10221199957577, 41.72764100023968], [-96.07664200029069, 41.71565699979602], [-96.07322500029105, 41.704062000014815], [-96.08464000040419, 41.6977089998682], [-96.11346100000756, 41.697569000099726], [-96.12260399996873, 41.68303999985784], [-96.11795900028076, 41.67331400026483], [-96.10005499994983, 41.66107699979277], [-96.09522100011597, 41.65011400012904], [-96.09777699995009, 41.63962500024283], [-96.11827700029806, 41.614967000040316], [-96.10945499982896, 41.59677500010568], [-96.08718600019256, 41.58655000005762], [-96.08138999991081, 41.577900000161826], [-96.09504200001584, 41.55476799970909], [-96.09510899996299, 41.54108899986928], [-96.08403100013375, 41.52687500024719], [-96.05276500012603, 41.50843599967528], [-96.03660300021767, 41.509046999760315], [-96.0266569998173, 41.54036600031819], [-96.01387599992354, 41.54531499998207], [-95.99996600007567, 41.539479999972905], [-95.99277700024918, 41.51459599987392], [-95.9961940002488, 41.50695999968975], [-95.4979969998422, 41.506073999953145], [-95.49779299962769, 41.602333000021424], [-95.55814299990281, 41.60238299986316]]]}, "properties": {"GEOID": "19085", "NAME": "Harrison County", "BASENAME": "Harrison", "county_fips": "19085", "episode_count": 4, "event_count": 4, "county_name": "HARRISON", "svi_overall": 0.1633}}, {"type": "Feature", "geometry": {"type": "Polygon", "coordinates": [[[-94.39756099957796, 42.209124999864144], [-93.93157999993136, 42.20990800020105], [-93.93168399968845, 42.47201100024744], [-93.9715989999129, 42.47208200020165], [-93.97171400043895, 42.644706999820535], [-94.44308299993827, 42.64516399971377], [-94.44303299970954, 42.47337800008837], [-94.39767100008113, 42.47330000001365], [-94.39756099957796, 42.209124999864144]]]}, "properties": {"GEOID": "19187", "NAME": "Webster County", "BASENAME": "Webster", "county_fips": "19187", "episode_count": 5, "event_count": 8, "county_name": "WEBSTER", "svi_overall": 0.8265}}, {"type": "Feature", "geometry": {"type": "Polygon", "coordinates": [[[-92.17907199967209, 40.899719999856686], [-91.71818000012749, 40.90108700005211], [-91.71604199986982, 41.162807999957], [-92.17997399984553, 41.16266200033138], [-92.17907199967209, 40.899719999856686]]]}, "properties": {"GEOID": "19101", "NAME": "Jefferson County", "BASENAME": "Jefferson", "county_fips": "19101", "episode_count": 1, "event_count": 3, "county_name": "JEFFERSON", "svi_overall": 0.9694}}, {"type": "Feature", "geometry": {"type": "Polygon", "coordinates": [[[-93.89881300042386, 41.156610000172236], [-93.78919599972573, 41.162035000256495], [-93.79061199973505, 41.51191600016122], [-93.89680700041066, 41.503098000335676], [-94.24159299993771, 41.50367899995223], [-94.24163700031863, 41.157133999740914], [-93.89881300042386, 41.156610000172236]]]}, "properties": {"GEOID": "19121", "NAME": "Madison County", "BASENAME": "Madison", "county_fips": "19121", "episode_count": 1, "event_count": 1, "county_name": "MADISON", "svi_overall": 0.0204}}, {"type": "Feature", "geometry": {"type": "Polygon", "coordinates": [[[-94.01480300009047, 40.897030999961274], [-93.5565400001749, 40.89829500008671], [-93.55755600015112, 41.161270999829874], [-93.77869600020482, 41.162141999939834], [-94.01418899979714, 41.15676199967304], [-94.01480300009047, 40.897030999961274]]]}, "properties": {"GEOID": "19039", "NAME": "Clarke County", "BASENAME": "Clarke", "county_fips": "19039", "episode_count": 1, "event_count": 1, "county_name": "CLARKE", "svi_overall": 0.9898}}, {"type": "Feature", "geometry": {"type": "Polygon", "coordinates": [[[-92.08166099983077, 42.64205600026858], [-91.60705899955651, 42.64397300002192], [-91.60530699998654, 43.081653000081424], [-92.08114600016995, 43.0827939998377], [-92.08166099983077, 42.64205600026858]]]}, "properties": {"GEOID": "19065", "NAME": "Fayette County", "BASENAME": "Fayette", "county_fips": "19065", "episode_count": 4, "event_count": 5, "county_name": "FAYETTE", "svi_overall": 0.7143}}, {"type": "Feature", "geometry": {"type": "Polygon", "coordinates": [[[-93.79061199973505, 41.51191600016122], [-93.78919599972573, 41.162035000256495], [-93.3278859997064, 41.16065899989734], [-93.32840700011329, 41.4907940001292], [-93.3453749999356, 41.48218500032283], [-93.35624199987764, 41.498158999772194], [-93.36260700024687, 41.48672300010414], [-93.37240399978602, 41.48616500027818], [-93.37481099965721, 41.49328600033282], [-93.38381300005136, 41.49479899996798], [-93.40383700019831, 41.48654800009466], [-93.4054570004221, 41.48976700030183], [-93.39662699955707, 41.49630399989422], [-93.39952999972081, 41.50180800003784], [-93.41426499974921, 41.49236000001208], [-93.42230999971838, 41.494193999887536], [-93.413841000325, 41.507414999724745], [-93.43810199973089, 41.50208199970972], [-93.44128600010201, 41.507589000208824], [-93.54824199958743, 41.51130900000682], [-93.79061199973505, 41.51191600016122]]]}, "properties": {"GEOID": "19181", "NAME": "Warren County", "BASENAME": "Warren", "county_fips": "19181", "episode_count": 0, "event_count": 0, "county_name": "Warren County", "svi_overall": 0.2449}}, {"type": "Feature", "geometry": {"type": "Polygon", "coordinates": [[[-94.44302400038704, 42.55884299979463], [-94.44295400006685, 42.90807299977105], [-94.91388999992112, 42.90969999971503], [-94.91455799974281, 42.5603230003292], [-94.44302400038704, 42.55884299979463]]]}, "properties": {"GEOID": "19151", "NAME": "Pocahontas County", "BASENAME": "Pocahontas", "county_fips": "19151", "episode_count": 1, "event_count": 1, "county_name": "POCAHONTAS", "svi_overall": 0.4796}}, {"type": "Feature", "geometry": {"type": "Polygon", "coordinates": [[[-94.92845900026818, 40.90065299980212], [-94.92852899969006, 40.727398999747514], [-94.91312400019015, 40.72728499968207], [-94.91489599985161, 40.57506800008218], [-94.47121300015374, 40.570824999873004], [-94.47077899978547, 40.89950199984956], [-94.92845900026818, 40.90065299980212]]]}, "properties": {"GEOID": "19173", "NAME": "Taylor County", "BASENAME": "Taylor", "county_fips": "19173", "episode_count": 0, "event_count": 0, "county_name": "Taylor County", "svi_overall": 0.4592}}, {"type": "Feature", "geometry": {"type": "Polygon", "coordinates": [[[-95.38496399986767, 40.90155000004066], [-95.3852540002959, 40.728377999835914], [-95.3706180000017, 40.728241000106834], [-95.37392299984833, 40.58050300009157], [-94.91489599985161, 40.57506800008218], [-94.91312400019015, 40.72728499968207], [-94.92852899969006, 40.727398999747514], [-94.92845900026818, 40.90065299980212], [-95.38496399986767, 40.90155000004066]]]}, "properties": {"GEOID": "19145", "NAME": "Page County", "BASENAME": "Page", "county_fips": "19145", "episode_count": 0, "event_count": 0, "county_name": "Page County", "svi_overall": 0.8571}}, {"type": "Feature", "geometry": {"type": "Polygon", "coordinates": [[[-95.38818199967567, 42.90989699978314], [-94.91388999992112, 42.90969999971503], [-94.91372300041486, 43.25505400024559], [-95.38807799991861, 43.25522099992452], [-95.38818199967567, 42.90989699978314]]]}, "properties": {"GEOID": "19041", "NAME": "Clay County", "BASENAME": "Clay", "county_fips": "19041", "episode_count": 12, "event_count": 36, "county_name": "CLAY", "svi_overall": 0.5102}}, {"type": "Feature", "geometry": {"type": "Polygon", "coordinates": [[[-92.76599899991623, 41.862372999759025], [-92.29816399969408, 41.86277900011305], [-92.29879200023112, 42.29752699969099], [-92.76809000031822, 42.296680000188026], [-92.76599899991623, 41.862372999759025]]]}, "properties": {"GEOID": "19171", "NAME": "Tama County", "BASENAME": "Tama", "county_fips": "19171", "episode_count": 2, "event_count": 7, "county_name": "TAMA", "svi_overall": 0.8776}}, {"type": "Feature", "geometry": {"type": "Polygon", "coordinates": [[[-92.63909100025393, 40.898886000181946], [-92.64037599984368, 41.161402000098356], [-93.09921700006757, 41.16086699998062], [-93.09759500019393, 40.898451000245664], [-92.63909100025393, 40.898886000181946]]]}, "properties": {"GEOID": "19135", "NAME": "Monroe County", "BASENAME": "Monroe", "county_fips": "19135", "episode_count": 2, "event_count": 3, "county_name": "MONROE", "svi_overall": 0.3878}}, {"type": "Feature", "geometry": {"type": "Polygon", "coordinates": [[[-92.29749400022258, 41.509790000168735], [-91.82923100037826, 41.51145699971919], [-91.82705999961033, 41.60045200005349], [-91.8330779996499, 41.60041400027621], [-91.83418499986273, 41.686701999881215], [-91.83137899978335, 41.86185099991235], [-92.29816399969408, 41.86277900011305], [-92.29749400022258, 41.509790000168735]]]}, "properties": {"GEOID": "19095", "NAME": "Iowa County", "BASENAME": "Iowa", "county_fips": "19095", "episode_count": 2, "event_count": 2, "county_name": "IOWA", "svi_overall": 0.2143}}, {"type": "Feature", "geometry": {"type": "Polygon", "coordinates": [[[-93.02514400044065, 42.90754900013147], [-93.0241429996347, 43.25553799991234], [-93.49763500022141, 43.25546799999303], [-93.49861699986245, 42.90851199993116], [-93.02514400044065, 42.90754900013147]]]}, "properties": {"GEOID": "19033", "NAME": "Cerro Gordo County", "BASENAME": "Cerro Gordo", "county_fips": "19033", "episode_count": 3, "event_count": 3, "county_name": "CERRO GORDO", "svi_overall": 0.5408}}, {"type": "Feature", "geometry": {"type": "Polygon", "coordinates": [[[-94.62872400002493, 41.86276299992375], [-94.16442800000114, 41.86324299984584], [-94.16470400018568, 42.20992000017916], [-94.62877300042872, 42.209482999895165], [-94.62872400002493, 41.86276299992375]]]}, "properties": {"GEOID": "19073", "NAME": "Greene County", "BASENAME": "Greene", "county_fips": "19073", "episode_count": 0, "event_count": 0, "county_name": "Greene County", "svi_overall": 0.551}}, {"type": "Feature", "geometry": {"type": "Polygon", "coordinates": [[[-93.02514400044065, 42.90754900013147], [-93.02699999976768, 42.55680999989302], [-92.55429999974956, 42.55585400027122], [-92.55421100006109, 42.90711199994757], [-93.02514400044065, 42.90754900013147]]]}, "properties": {"GEOID": "19023", "NAME": "Butler County", "BASENAME": "Butler", "county_fips": "19023", "episode_count": 3, "event_count": 8, "county_name": "BUTLER", "svi_overall": 0.1224}}, {"type": "Feature", "geometry": {"type": "Polygon", "coordinates": [[[-91.36326300025215, 42.29644499993172], [-91.36587699981256, 41.9474100001029], [-90.89848400035461, 41.94624500026329], [-90.89801999984911, 42.29523599974656], [-91.36326300025215, 42.29644499993172]]]}, "properties": {"GEOID": "19105", "NAME": "Jones County", "BASENAME": "Jones", "county_fips": "19105", "episode_count": 1, "event_count": 1, "county_name": "JONES", "svi_overall": 0.3571}}, {"type": "Feature", "geometry": {"type": "Polygon", "coordinates": [[[-91.3707099998215, 41.07411200001232], [-90.94938100014885, 41.07271000022734], [-90.94662500029821, 41.09662800021577], [-90.98966200007119, 41.155707000187505], [-91.0075939999912, 41.166187000052346], [-91.04155700029833, 41.16616200025672], [-91.0729839999645, 41.20715099994978], [-91.11306200039559, 41.239968000332546], [-91.11278299983802, 41.25253100017414], [-91.08921199999511, 41.29120900026695], [-91.07484100001479, 41.30557800033002], [-91.07204499998117, 41.333598999788165], [-91.36933200034534, 41.336062999747675], [-91.36852100040853, 41.423178000086885], [-91.4839949996911, 41.42384800020799], [-91.48571700002216, 41.16240499967681], [-91.37029800009287, 41.16124699976776], [-91.3707099998215, 41.07411200001232]]]}, "properties": {"GEOID": "19115", "NAME": "Louisa County", "BASENAME": "Louisa", "county_fips": "19115", "episode_count": 5, "event_count": 6, "county_name": "LOUISA", "svi_overall": 0.6735}}, {"type": "Feature", "geometry": {"type": "Polygon", "coordinates": [[[-94.44313700036496, 43.25501399989013], [-94.91372300041486, 43.25505400024559], [-94.91388999992112, 42.90969999971503], [-94.44295400006685, 42.90807299977105], [-94.44313700036496, 43.25501399989013]]]}, "properties": {"GEOID": "19147", "NAME": "Palo Alto County", "BASENAME": "Palo Alto", "county_fips": "19147", "episode_count": 3, "event_count": 4, "county_name": "PALO ALTO", "svi_overall": 0.4694}}, {"type": "Feature", "geometry": {"type": "Polygon", "coordinates": [[[-94.47121300015374, 40.570824999873004], [-94.01549199982855, 40.57391399980322], [-94.01480300009047, 40.897030999961274], [-94.47077899978547, 40.89950199984956], [-94.47121300015374, 40.570824999873004]]]}, "properties": {"GEOID": "19159", "NAME": "Ringgold County", "BASENAME": "Ringgold", "county_fips": "19159", "episode_count": 0, "event_count": 0, "county_name": "Ringgold County", "svi_overall": 0.7041}}, {"type": "Feature", "geometry": {"type": "Polygon", "coordinates": [[[-93.46304299955234, 42.20930200000666], [-93.46263500002166, 42.47080200019046], [-93.49909800008639, 42.470974999891894], [-93.49948499970067, 42.557699999918455], [-93.97158300001938, 42.55813899991704], [-93.9715989999129, 42.47208200020165], [-93.93168399968845, 42.47201100024744], [-93.93157999993136, 42.20990800020105], [-93.46304299955234, 42.20930200000666]]]}, "properties": {"GEOID": "19079", "NAME": "Hamilton County", "BASENAME": "Hamilton", "county_fips": "19079", "episode_count": 0, "event_count": 0, "county_name": "Hamilton County", "svi_overall": 0.3776}}, {"type": "Feature", "geometry": {"type": "Polygon", "coordinates": [[[-94.01549199982855, 40.57391399980322], [-93.55689900020009, 40.58023500014951], [-93.5565400001749, 40.89829500008671], [-94.01480300009047, 40.897030999961274], [-94.01549199982855, 40.57391399980322]]]}, "properties": {"GEOID": "19053", "NAME": "Decatur County", "BASENAME": "Decatur", "county_fips": "19053", "episode_count": 1, "event_count": 1, "county_name": "DECATUR", "svi_overall": 0.9286}}, {"type": "Feature", "geometry": {"type": "Polygon", "coordinates": [[[-91.60705899955651, 42.64397300002192], [-90.89741499977661, 42.64571399988072], [-90.89695100016945, 42.675081999797854], [-90.9211549996739, 42.685406000187925], [-90.94156700015837, 42.683844000042], [-90.9763139997398, 42.69599600008254], [-90.99553600017074, 42.713704000285254], [-91.02678600028491, 42.724227999887084], [-91.03541799988493, 42.73733999992793], [-91.05373300011956, 42.738238000322234], [-91.05629700034957, 42.74734099984299], [-91.06505899964593, 42.75133800016753], [-91.0602609997971, 42.761846999680664], [-91.06954900042152, 42.76962800011304], [-91.07866499972019, 42.82767799993532], [-91.09406000007267, 42.830812999805794], [-91.09140200013132, 42.849859999989604], [-91.09765600017246, 42.859871000136536], [-91.10056500018396, 42.883078000216855], [-91.11741099980755, 42.89583700028688], [-91.14561499964286, 42.90800600013706], [-91.14380000032368, 42.92287700029582], [-91.14988000028754, 42.941954999918906], [-91.14542999969493, 42.95821100024359], [-91.15656199995085, 42.97822600030071], [-91.17469200023757, 43.03871300017636], [-91.17945699957613, 43.06742700031004], [-91.1772220001324, 43.08024699993187], [-91.60530699998654, 43.081653000081424], [-91.60705899955651, 42.64397300002192]]]}, "properties": {"GEOID": "19043", "NAME": "Clayton County", "BASENAME": "Clayton", "county_fips": "19043", "episode_count": 11, "event_count": 17, "county_name": "CLAYTON", "svi_overall": 0.7449}}, {"type": "Feature", "geometry": {"type": "Polygon", "coordinates": [[[-92.55421100006109, 42.90711199994757], [-92.5543809999404, 43.212813000081866], [-93.02409199958107, 43.21281199969089], [-93.02514400044065, 42.90754900013147], [-92.55421100006109, 42.90711199994757]]]}, "properties": {"GEOID": "19067", "NAME": "Floyd County", "BASENAME": "Floyd", "county_fips": "19067", "episode_count": 4, "event_count": 6, "county_name": "FLOYD", "svi_overall": 0.4082}}, {"type": "Feature", "geometry": {"type": "Polygon", "coordinates": [[[-93.02514400044065, 42.90754900013147], [-93.49861699986245, 42.90851199993116], [-93.49948499970067, 42.557699999918455], [-93.02699999976768, 42.55680999989302], [-93.02514400044065, 42.90754900013147]]]}, "properties": {"GEOID": "19069", "NAME": "Franklin County", "BASENAME": "Franklin", "county_fips": "19069", "episode_count": 1, "event_count": 1, "county_name": "FRANKLIN", "svi_overall": 0.4898}}, {"type": "Feature", "geometry": {"type": "Polygon", "coordinates": [[[-91.09342599968787, 40.77430599978498], [-91.09166400007214, 40.790265000202226], [-91.0975530002403, 40.80843299982877], [-91.09007200033572, 40.824638000163326], [-91.05643000041898, 40.848387000135304], [-91.04465299990758, 40.86835599971152], [-91.0215619995654, 40.88402100023089], [-91.0095360004303, 40.90056500018016], [-90.962916000078, 40.92495699983892], [-90.95223300025896, 40.95404699980919], [-90.95814199962028, 40.97976700019891], [-90.9459490000806, 41.00649500019034], [-90.94225300042172, 41.034702000298104], [-90.94938100014885, 41.07271000022734], [-91.3707099998215, 41.07411200001232], [-91.37209499986866, 40.812631000140854], [-91.40945300043413, 40.8129050003312], [-91.40725200042728, 40.809618999845334], [-91.39353099982696, 40.80861800004631], [-91.36387199962428, 40.79066499998441], [-91.35074599994905, 40.79364200029047], [-91.34683199983195, 40.786473000127586], [-91.31884700027976, 40.77992099979987], [-91.31167400034678, 40.77214699966106], [-91.2922450002266, 40.77203500019294], [-91.28182799964803, 40.75368499971702], [-91.24771999957595, 40.75023400011542], [-91.23344900005304, 40.73754500006655], [-91.2171180000903, 40.732286000049804], [-91.20710200026802, 40.72111599986259], [-91.20955000014709, 40.71399299995928], [-91.19682000030699, 40.719222000052326], [-91.1800380002575, 40.708302999778596], [-91.17652099980045, 40.721092000000084], [-91.16256300027199, 40.722720999877296], [-91.15063599997278, 40.70620300015253], [-91.13054400005379, 40.698147000248184], [-91.11194000011415, 40.697018000009614], [-91.11573500040555, 40.72516799974933], [-91.10876499996384, 40.75003999983859], [-91.09342599968787, 40.77430599978498]]]}, "properties": {"GEOID": "19057", "NAME": "Des Moines County", "BASENAME": "Des Moines", "county_fips": "19057", "episode_count": 5, "event_count": 8, "county_name": "DES MOINES", "svi_overall": 0.8163}}, {"type": "Feature", "geometry": {"type": "Polygon", "coordinates": [[[-90.53303500027296, 41.52493300025772], [-90.5006329997401, 41.51803300013439], [-90.46143200026643, 41.52353299977232], [-90.4128250001675, 41.565328999799206], [-90.34322800017414, 41.58783300022944], [-90.33952800031729, 41.59863300028805], [-90.34345199958182, 41.646958999710144], [-90.33452500042902, 41.67955899970152], [-90.31343500007716, 41.69808200019769], [-90.31612999982843, 41.728768999729894], [-90.33994800044185, 41.7405229998266], [-90.34772800009716, 41.73004900017676], [-90.3566729996916, 41.7318760000055], [-90.3575249996363, 41.727783000110975], [-90.38832899968665, 41.73713099970617], [-90.3895859996873, 41.73056900017525], [-90.39599399971422, 41.733818999990326], [-90.40793100005916, 41.72929599979342], [-90.41058499980257, 41.73242900000642], [-90.40624899991109, 41.7356750002885], [-90.41250399977713, 41.74111800000726], [-90.42801499958225, 41.7366170000367], [-90.42309899973262, 41.74057200028636], [-90.42746300011152, 41.74445999984348], [-90.42420099992258, 41.75055899988626], [-90.43595599979434, 41.76032300004345], [-90.45040200011773, 41.764825999958205], [-90.4639589997882, 41.75853599999151], [-90.47172300044829, 41.77360299975459], [-90.48500599958405, 41.7663949998908], [-90.50753700005959, 41.76947599972457], [-90.51279400039105, 41.765338999913496], [-90.53734500022519, 41.77643500017044], [-90.54281599991859, 41.76591899999424], [-90.54947500001568, 41.769236000325726], [-90.54953699993996, 41.7635649998789], [-90.56476300023803, 41.76583099972792], [-90.57913099984529, 41.759128999848116], [-90.59241999972714, 41.77063899973771], [-90.6000830001049, 41.762987999815046], [-90.6112630000414, 41.763965999946905], [-90.6163529999683, 41.75646499979966], [-90.62957900010097, 41.76530800008616], [-90.65145399955207, 41.75541600017493], [-90.65871799972166, 41.764816000281385], [-90.66785099963708, 41.76447499991771], [-90.6765259997931, 41.76093200032584], [-90.6769550001385, 41.75537499976668], [-90.68697099996076, 41.75686200004428], [-90.68687999972418, 41.75247100025628], [-90.69434200026048, 41.748928000071196], [-90.69164199958801, 41.74312799978224], [-90.70357200026028, 41.73722600001362], [-90.71173600005514, 41.73957599993014], [-90.71390199990189, 41.73457799999694], [-90.7261870004014, 41.74231400021775], [-90.73227499986285, 41.73738500029854], [-90.74892600039108, 41.7441499999052], [-90.76130300005379, 41.762403000014615], [-90.7862120000882, 41.77136900025968], [-90.89837300002654, 41.77139199971069], [-90.89985299960993, 41.59713299976927], [-90.78381199988969, 41.59653100007903], [-90.78628200040839, 41.45288799986995], [-90.7375370002172, 41.45012700013334], [-90.65583899984736, 41.46213199981322], [-90.60593600028804, 41.49423200024349], [-90.60213699979869, 41.50603199973148], [-90.59523699967717, 41.511032000195], [-90.5562350003951, 41.524232000025606], [-90.53303500027296, 41.52493300025772]]]}, "properties": {"GEOID": "19163", "NAME": "Scott County", "BASENAME": "Scott", "county_fips": "19163", "episode_count": 7, "event_count": 14, "county_name": "SCOTT", "svi_overall": 0.7653}}, {"type": "Feature", "geometry": {"type": "Polygon", "coordinates": [[[-94.7442040000536, 41.60218500002106], [-94.74487600007326, 41.86239400030194], [-95.09286100004005, 41.86337400012693], [-95.09251999955818, 41.60205500022182], [-95.04074800025303, 41.602152000324196], [-95.04076999999432, 41.50468999986504], [-94.70062900015526, 41.504148000209085], [-94.7007449996079, 41.602183999806606], [-94.7442040000536, 41.60218500002106]]]}, "properties": {"GEOID": "19009", "NAME": "Audubon County", "BASENAME": "Audubon", "county_fips": "19009", "episode_count": 0, "event_count": 0, "county_name": "Audubon County", "svi_overall": 0.1939}}, {"type": "Feature", "geometry": {"type": "Polygon", "coordinates": [[[-95.38434899974942, 41.160010999906234], [-95.38496399986767, 40.90155000004066], [-94.92845900026818, 40.90065299980212], [-94.92758700023198, 41.15850799978938], [-95.38434899974942, 41.160010999906234]]]}, "properties": {"GEOID": "19137", "NAME": "Montgomery County", "BASENAME": "Montgomery", "county_fips": "19137", "episode_count": 0, "event_count": 0, "county_name": "Montgomery County", "svi_overall": 0.449}}, {"type": "Feature", "geometry": {"type": "Polygon", "coordinates": [[[-95.67277099998678, 41.86314700001588], [-95.670821999875, 42.21140799975509], [-96.35656000007626, 42.215001999881856], [-96.35986999994576, 42.21055300028263], [-96.34737399955905, 42.193075000292204], [-96.35042200038606, 42.17522700006553], [-96.3449049997636, 42.16237599999243], [-96.32073999971885, 42.14792799996915], [-96.30975800014907, 42.13210100017599], [-96.28020000022873, 42.12378299977293], [-96.26892099965971, 42.11329100009265], [-96.26773900000214, 42.097054999859786], [-96.27947899980528, 42.070879999950186], [-96.27196899958841, 42.04538999975852], [-96.25806700013645, 42.038274000270455], [-96.23435599965315, 42.04071199987309], [-96.22243599992494, 42.03094599975767], [-96.22361099990982, 42.022652000215196], [-96.24083200035045, 42.00931499987094], [-96.24137200012562, 41.99998699991301], [-96.2271719998495, 41.994331999682174], [-96.21522500035712, 42.00670099993537], [-96.19455599995474, 42.00866200022639], [-96.18400200000713, 42.0030629997442], [-96.19214099968764, 41.98446099974483], [-96.18721899999022, 41.97794600021162], [-96.15208999991904, 41.97966099984448], [-96.12950499991516, 41.97167299976022], [-96.13331799974989, 41.955732000285465], [-96.14458300007522, 41.941544000297434], [-96.13674300014546, 41.92082600003354], [-96.16198799974053, 41.90555300009352], [-96.13900799972642, 41.866276999889], [-95.67277099998678, 41.86314700001588]]]}, "properties": {"GEOID": "19133", "NAME": "Monona County", "BASENAME": "Monona", "county_fips": "19133", "episode_count": 1, "event_count": 2, "county_name": "MONONA", "svi_overall": 0.4286}}, {"type": "Feature", "geometry": {"type": "Polygon", "coordinates": [[[-93.0972960004432, 40.58401399973755], [-93.09759500019393, 40.898451000245664], [-93.5565400001749, 40.89829500008671], [-93.55689900020009, 40.58023500014951], [-93.0972960004432, 40.58401399973755]]]}, "properties": {"GEOID": "19185", "NAME": "Wayne County", "BASENAME": "Wayne", "county_fips": "19185", "episode_count": 0, "event_count": 0, "county_name": "Wayne County", "svi_overall": 0.8367}}, {"type": "Feature", "geometry": {"type": "Polygon", "coordinates": [[[-93.97123800023788, 42.90776199973495], [-94.44295400006685, 42.90807299977105], [-94.44308299993827, 42.64516399971377], [-93.97171400043895, 42.644706999820535], [-93.97123800023788, 42.90776199973495]]]}, "properties": {"GEOID": "19091", "NAME": "Humboldt County", "BASENAME": "Humboldt", "county_fips": "19091", "episode_count": 2, "event_count": 3, "county_name": "HUMBOLDT", "svi_overall": 0.5204}}, {"type": "Feature", "geometry": {"type": "Polygon", "coordinates": [[[-94.91388999992112, 42.90969999971503], [-95.38818199967567, 42.90989699978314], [-95.38801000014654, 42.56174199974679], [-94.91448499994787, 42.56030900009074], [-94.91388999992112, 42.90969999971503]]]}, "properties": {"GEOID": "19021", "NAME": "Buena Vista County", "BASENAME": "Buena Vista", "county_fips": "19021", "episode_count": 5, "event_count": 8, "county_name": "BUENA VISTA", "svi_overall": 0.9082}}, {"type": "Feature", "geometry": {"type": "Polygon", "coordinates": [[[-95.8134649996484, 40.90169300029274], [-95.38482999997336, 40.90160000002149], [-95.38434899974942, 41.160010999906234], [-95.88052099987628, 41.159873999927825], [-95.88230299958347, 41.14440199983942], [-95.86722799979646, 41.1214930001758], [-95.86242699957457, 41.089686999754754], [-95.86583500025168, 41.08007899987579], [-95.88101100032104, 41.06630300000173], [-95.88158799990613, 41.054378000065775], [-95.85965400000548, 41.0356949998882], [-95.85991799959612, 41.025402999903214], [-95.86950199959826, 41.00942900006677], [-95.86695099978701, 41.0010849998842], [-95.83543399970915, 40.98418400014468], [-95.82907400026112, 40.97568800003116], [-95.84027500011402, 40.939941999888504], [-95.83304100008166, 40.917242999912744], [-95.8134649996484, 40.90169300029274]]]}, "properties": {"GEOID": "19129", "NAME": "Mills County", "BASENAME": "Mills", "county_fips": "19129", "episode_count": 3, "event_count": 3, "county_name": "MILLS", "svi_overall": 0.3265}}, {"type": "Feature", "geometry": {"type": "Polygon", "coordinates": [[[-94.24159299993771, 41.50367899995223], [-93.89680700041066, 41.503098000335676], [-93.79061199973505, 41.51191600016122], [-93.79063199982654, 41.60042500024941], [-93.81428200021047, 41.60045599967517], [-93.81572099978601, 41.86341899971726], [-94.28033999984996, 41.86299900030232], [-94.28005699999275, 41.60131199967094], [-94.24135600011125, 41.60097100028698], [-94.24159299993771, 41.50367899995223]]]}, "properties": {"GEOID": "19049", "NAME": "Dallas County", "BASENAME": "Dallas", "county_fips": "19049", "episode_count": 2, "event_count": 2, "county_name": "DALLAS", "svi_overall": 0.2041}}, {"type": "Feature", "geometry": {"type": "Polygon", "coordinates": [[[-93.81572099978601, 41.86341899971726], [-93.81428200021047, 41.60045599967517], [-93.79063199982654, 41.60042500024941], [-93.79061199973505, 41.51191600016122], [-93.54824199958743, 41.51130900000682], [-93.44128600010201, 41.507589000208824], [-93.43810199973089, 41.50208199970972], [-93.413841000325, 41.507414999724745], [-93.42230999971838, 41.494193999887536], [-93.41426499974921, 41.49236000001208], [-93.39952999972081, 41.50180800003784], [-93.39662699955707, 41.49630399989422], [-93.4054570004221, 41.48976700030183], [-93.40383700019831, 41.48654800009466], [-93.38381300005136, 41.49479899996798], [-93.37481099965721, 41.49328600033282], [-93.37240399978602, 41.48616500027818], [-93.36260700024687, 41.48672300010414], [-93.35624199987764, 41.498158999772194], [-93.3453749999356, 41.48218500032283], [-93.32840700011329, 41.4907940001292], [-93.32868099974968, 41.60114799968782], [-93.34868099960714, 41.60099900009549], [-93.34793300031784, 41.8631039999129], [-93.81572099978601, 41.86341899971726]]]}, "properties": {"GEOID": "19153", "NAME": "Polk County", "BASENAME": "Polk", "county_fips": "19153", "episode_count": 5, "event_count": 10, "county_name": "POLK", "svi_overall": 0.8469}}, {"type": "Feature", "geometry": {"type": "Polygon", "coordinates": [[[-92.63789799982737, 40.590852999742864], [-92.17977999967677, 40.60052900008973], [-92.17907199967209, 40.899719999856686], [-92.63909100025393, 40.898886000181946], [-92.63789799982737, 40.590852999742864]]]}, "properties": {"GEOID": "19051", "NAME": "Davis County", "BASENAME": "Davis", "county_fips": "19051", "episode_count": 0, "event_count": 0, "county_name": "Davis County", "svi_overall": 0.6224}}, {"type": "Feature", "geometry": {"type": "Polygon", "coordinates": [[[-95.85937699999604, 42.909096999855045], [-95.86191399956358, 43.25756599989377], [-96.55496699998803, 43.26015099993809], [-96.54918699959981, 43.246813999755524], [-96.56519100022274, 43.24445399993801], [-96.57143799969288, 43.23902200012202], [-96.55918599970364, 43.22290099973177], [-96.53591500033471, 43.22763400006833], [-96.52069200040968, 43.217982999776915], [-96.50905999966324, 43.21716000019467], [-96.50855099985021, 43.221117000162], [-96.49663899961962, 43.22371599998758], [-96.47665399983076, 43.221941000253956], [-96.47646899988283, 43.2129689999843], [-96.47066000008063, 43.20732599971936], [-96.47500699984278, 43.20256900001845], [-96.4740090003082, 43.18963900025925], [-96.46485600030128, 43.18196000016561], [-96.46955600024084, 43.15835299969787], [-96.46398099989204, 43.15548899998957], [-96.46849900025673, 43.15188700023434], [-96.45924800034052, 43.147488000029476], [-96.46042999999811, 43.14363000008911], [-96.45043000006937, 43.14238999984634], [-96.43647300036584, 43.120201999776235], [-96.45238000000609, 43.09819299990883], [-96.46231999966035, 43.09288499986804], [-96.45407999969751, 43.083844999744336], [-96.46074200016766, 43.06433700015411], [-96.47674000004449, 43.062697000137476], [-96.49093000027486, 43.05081199968309], [-96.51052300042655, 43.049913000164516], [-96.51481199956406, 43.045173999893514], [-96.51252100004382, 43.04108000005726], [-96.52130199960673, 43.039660000307535], [-96.50933300037303, 43.037961999865836], [-96.51243499983009, 43.02686500028767], [-96.49202900009175, 43.00894999973815], [-96.49699500017009, 42.998478000030914], [-96.50985999972941, 42.99522800006011], [-96.51238200012664, 42.985657999853046], [-96.52083799999956, 42.98031400016859], [-96.51577300018701, 42.97284400028482], [-96.50515999978985, 42.97109500009597], [-96.49896299965013, 42.9578020000326], [-96.50891900009626, 42.95371499970727], [-96.5092880001672, 42.94515300012175], [-96.5198699997039, 42.93996900010796], [-96.51686799980595, 42.932320999761515], [-96.52531199998329, 42.935626999915094], [-96.53410599996502, 42.923710000201176], [-96.54087999968982, 42.92479200028861], [-96.53845799975002, 42.90877100018984], [-95.85937699999604, 42.909096999855045]]]}, "properties": {"GEOID": "19167", "NAME": "Sioux County", "BASENAME": "Sioux", "county_fips": "19167", "episode_count": 11, "event_count": 29, "county_name": "SIOUX", "svi_overall": 0.4184}}, {"type": "Feature", "geometry": {"type": "Polygon", "coordinates": [[[-91.36607900037724, 41.8600680000622], [-91.83137899978335, 41.86185099991235], [-91.83418499986273, 41.686701999881215], [-91.8330779996499, 41.60041400027621], [-91.82705999961033, 41.60045200005349], [-91.82923100037826, 41.51145699971919], [-91.51982799956899, 41.511010000069255], [-91.52793500036074, 41.507763000225225], [-91.51750000023883, 41.49698700029662], [-91.50735200017209, 41.50230799982369], [-91.51067399973716, 41.494688999945474], [-91.50374500020165, 41.49336200006927], [-91.50131599969083, 41.48734000033484], [-91.50249900007165, 41.47667499970613], [-91.51294800043728, 41.476315000038234], [-91.51603099962774, 41.46822300002011], [-91.49877300027553, 41.45921300011096], [-91.5028199995637, 41.44935900030754], [-91.49071099968961, 41.440426999740396], [-91.4839949996911, 41.42384800020799], [-91.36852100040853, 41.423178000086885], [-91.36607900037724, 41.8600680000622]]]}, "properties": {"GEOID": "19103", "NAME": "Johnson County", "BASENAME": "Johnson", "county_fips": "19103", "episode_count": 4, "event_count": 7, "county_name": "JOHNSON", "svi_overall": 0.7755}}, {"type": "Feature", "geometry": {"type": "Polygon", "coordinates": [[[-94.91448499994787, 42.56030900009074], [-94.9144869995977, 42.474190000138464], [-94.85668899985704, 42.47399600014922], [-94.85841200001302, 42.20969200020565], [-94.39752600031618, 42.20916100023779], [-94.39767100008113, 42.47330000001365], [-94.44303299970954, 42.47337800008837], [-94.44302400038704, 42.55884299979463], [-94.91448499994787, 42.56030900009074]]]}, "properties": {"GEOID": "19025", "NAME": "Calhoun County", "BASENAME": "Calhoun", "county_fips": "19025", "episode_count": 0, "event_count": 0, "county_name": "Calhoun County", "svi_overall": 0.2959}}, {"type": "Feature", "geometry": {"type": "Polygon", "coordinates": [[[-95.74161099957168, 42.561285000213026], [-96.41814999973526, 42.56223399976407], [-96.49899699998532, 42.56083199973016], [-96.4955399998027, 42.556440000251094], [-96.4769600001525, 42.555971999925966], [-96.4790070001736, 42.52639400030283], [-96.49372200011051, 42.516742000157976], [-96.47604799993336, 42.5077830001758], [-96.47636900032373, 42.490043000167574], [-96.45594099994575, 42.49257699966977], [-96.40196199988763, 42.486439999867926], [-96.3854069996189, 42.473093999705725], [-96.38070500002951, 42.44639299988408], [-96.38760799962574, 42.43249400029944], [-96.41518600037047, 42.404203000051936], [-96.40843600003679, 42.376091999994706], [-96.41816800017693, 42.35467800009458], [-96.40799800036888, 42.33740800003142], [-96.37530700013103, 42.318338999962776], [-96.36921200009854, 42.30834399972267], [-96.36575099971799, 42.2858139997787], [-96.3359640003671, 42.26477699995298], [-96.32889699984102, 42.25472300025433], [-96.33000599970367, 42.24022499993763], [-96.32372300024853, 42.22988700001354], [-96.33699799988668, 42.21746599987838], [-96.35656000007626, 42.215001999881856], [-95.670821999875, 42.21140799975509], [-95.6692650002987, 42.47464500002185], [-95.74182099963397, 42.47486500004595], [-95.74161099957168, 42.561285000213026]]]}, "properties": {"GEOID": "19193", "NAME": "Woodbury County", "BASENAME": "Woodbury", "county_fips": "19193", "episode_count": 5, "event_count": 9, "county_name": "WOODBURY", "svi_overall": 0.9796}}, {"type": "Feature", "geometry": {"type": "Polygon", "coordinates": [[[-93.0972960004432, 40.58401399973755], [-92.63789799982737, 40.590852999742864], [-92.63909100025393, 40.898886000181946], [-93.09759500019393, 40.898451000245664], [-93.0972960004432, 40.58401399973755]]]}, "properties": {"GEOID": "19007", "NAME": "Appanoose County", "BASENAME": "Appanoose", "county_fips": "19007", "episode_count": 1, "event_count": 1, "county_name": "APPANOOSE", "svi_overall": 0.8673}}, {"type": "Feature", "geometry": {"type": "Polygon", "coordinates": [[[-92.5543809999404, 43.212813000081866], [-92.5531280001377, 43.500217999846484], [-93.02434500019939, 43.49973300008489], [-93.02409199958107, 43.21281199969089], [-92.5543809999404, 43.212813000081866]]]}, "properties": {"GEOID": "19131", "NAME": "Mitchell County", "BASENAME": "Mitchell", "county_fips": "19131", "episode_count": 3, "event_count": 5, "county_name": "MITCHELL", "svi_overall": 0.2551}}, {"type": "Feature", "geometry": {"type": "Polygon", "coordinates": [[[-90.89837300002654, 42.03354800001047], [-90.15422100014149, 42.03307299984083], [-90.16433700042117, 42.04151499985123], [-90.1668530000723, 42.054910000095724], [-90.16835799977008, 42.07577900004876], [-90.16112000043807, 42.1044039996673], [-90.16399199974137, 42.11830299980411], [-90.17040999981403, 42.125020999848964], [-90.1904520004026, 42.12577899986935], [-90.20140399983516, 42.130936999754354], [-90.20825999957573, 42.15099000022886], [-90.21610700007649, 42.156730000265725], [-90.25012899993486, 42.17146899984953], [-90.28217300026742, 42.178846000237954], [-90.3282730000377, 42.20104699999914], [-90.35696399994475, 42.20544500003729], [-90.39315099982494, 42.22718599979431], [-90.41932600008083, 42.254467000142114], [-90.43088400030912, 42.27823000001415], [-90.4165350000701, 42.3251089999697], [-90.47379800005845, 42.38145800028648], [-90.66502899966419, 42.38215500031303], [-90.66555099989601, 42.29469900027478], [-90.89801999984911, 42.29523599974656], [-90.89837300002654, 42.03354800001047]]]}, "properties": {"GEOID": "19097", "NAME": "Jackson County", "BASENAME": "Jackson", "county_fips": "19097", "episode_count": 3, "event_count": 3, "county_name": "JACKSON", "svi_overall": 0.3367}}, {"type": "Feature", "geometry": {"type": "Polygon", "coordinates": [[[-94.24163700031863, 41.157133999740914], [-94.24159299993771, 41.50367899995223], [-94.70062900015526, 41.504148000209085], [-94.7005889999723, 41.15808500011853], [-94.24163700031863, 41.157133999740914]]]}, "properties": {"GEOID": "19001", "NAME": "Adair County", "BASENAME": "Adair", "county_fips": "19001", "episode_count": 1, "event_count": 1, "county_name": "ADAIR", "svi_overall": 0.2755}}, {"type": "Feature", "geometry": {"type": "Polygon", "coordinates": [[[-95.670821999875, 42.21140799975509], [-95.32329100036797, 42.2114910001918], [-95.32235700040751, 42.474736999957365], [-95.38744500025702, 42.474796000248155], [-95.38801000014654, 42.56174199974679], [-95.74161099957168, 42.561285000213026], [-95.74182099963397, 42.47486500004595], [-95.6692650002987, 42.47464500002185], [-95.670821999875, 42.21140799975509]]]}, "properties": {"GEOID": "19093", "NAME": "Ida County", "BASENAME": "Ida", "county_fips": "19093", "episode_count": 1, "event_count": 1, "county_name": "IDA", "svi_overall": 0.1429}}, {"type": "Feature", "geometry": {"type": "Polygon", "coordinates": [[[-95.15230400011887, 41.50523900026727], [-95.15585099981485, 41.15923599978117], [-94.7004340001616, 41.15824600027187], [-94.70062900015526, 41.504148000209085], [-95.15230400011887, 41.50523900026727]]]}, "properties": {"GEOID": "19029", "NAME": "Cass County", "BASENAME": "Cass", "county_fips": "19029", "episode_count": 0, "event_count": 0, "county_name": "Cass County", "svi_overall": 0.5612}}, {"type": "Feature", "geometry": {"type": "Polygon", "coordinates": [[[-95.38778699966547, 43.50022599969297], [-95.86094699999114, 43.500036000282456], [-95.86191399956358, 43.25756599989377], [-95.38807799991861, 43.25522099992452], [-95.38778699966547, 43.50022599969297]]]}, "properties": {"GEOID": "19143", "NAME": "Osceola County", "BASENAME": "Osceola", "county_fips": "19143", "episode_count": 2, "event_count": 2, "county_name": "OSCEOLA", "svi_overall": 0.5918}}, {"type": "Feature", "geometry": {"type": "Polygon", "coordinates": [[[-91.36644800044819, 41.59837300022371], [-91.36933200034534, 41.336062999747675], [-91.07204499998117, 41.333598999788165], [-91.06565600022083, 41.3679959999615], [-91.05157999979329, 41.38528299972944], [-91.04764200028507, 41.411310000286925], [-91.03713099999514, 41.42001699979222], [-90.97981500030335, 41.43432099967823], [-90.93001599960277, 41.421403999849666], [-90.85360399987673, 41.453909000142325], [-90.78628200040839, 41.45288799986995], [-90.78381199988969, 41.59653100007903], [-91.36644800044819, 41.59837300022371]]]}, "properties": {"GEOID": "19139", "NAME": "Muscatine County", "BASENAME": "Muscatine", "county_fips": "19139", "episode_count": 8, "event_count": 10, "county_name": "MUSCATINE", "svi_overall": 0.898}}, {"type": "Feature", "geometry": {"type": "Polygon", "coordinates": [[[-92.76809000031822, 42.296680000188026], [-92.53350999987165, 42.297000999850546], [-92.53401500038503, 42.46959200006441], [-92.55432999988678, 42.46960099989759], [-92.55429999974956, 42.55585400027122], [-93.02699999976768, 42.55680999989302], [-93.02711500029372, 42.47077599976885], [-93.0029019996701, 42.470637999694944], [-93.00167399998176, 42.20926699977722], [-92.76746299960612, 42.21014000026058], [-92.76809000031822, 42.296680000188026]]]}, "properties": {"GEOID": "19075", "NAME": "Grundy County", "BASENAME": "Grundy", "county_fips": "19075", "episode_count": 1, "event_count": 2, "county_name": "GRUNDY", "svi_overall": 0.0}}, {"type": "Feature", "geometry": {"type": "Polygon", "coordinates": [[[-91.36587699981256, 41.9474100001029], [-91.36644800044819, 41.59837300022371], [-90.89985299960993, 41.59713299976927], [-90.89848400035461, 41.94624500026329], [-91.36587699981256, 41.9474100001029]]]}, "properties": {"GEOID": "19031", "NAME": "Cedar County", "BASENAME": "Cedar", "county_fips": "19031", "episode_count": 0, "event_count": 0, "county_name": "Cedar County", "svi_overall": 0.0306}}, {"type": "Feature", "geometry": {"type": "Polygon", "coordinates": [[[-93.49763500022141, 43.25546799999303], [-93.49735300018912, 43.499622000154574], [-93.97076200003681, 43.49988599974245], [-93.97041499970719, 43.25535799986373], [-93.49763500022141, 43.25546799999303]]]}, "properties": {"GEOID": "19189", "NAME": "Winnebago County", "BASENAME": "Winnebago", "county_fips": "19189", "episode_count": 0, "event_count": 0, "county_name": "Winnebago County", "svi_overall": 0.3163}}, {"type": "Feature", "geometry": {"type": "Polygon", "coordinates": [[[-94.62880600004067, 42.209395999899535], [-95.09085099982889, 42.21040500032417], [-95.09286100004005, 41.86337400012693], [-94.62872400002493, 41.86276299992375], [-94.62880600004067, 42.209395999899535]]]}, "properties": {"GEOID": "19027", "NAME": "Carroll County", "BASENAME": "Carroll", "county_fips": "19027", "episode_count": 0, "event_count": 0, "county_name": "Carroll County", "svi_overall": 0.1837}}, {"type": "Feature", "geometry": {"type": "Polygon", "coordinates": [[[-92.76746299960612, 42.21014000026058], [-93.23172199981997, 42.2088860002455], [-93.2318580002624, 41.86271099995006], [-92.76599899991623, 41.862372999759025], [-92.76746299960612, 42.21014000026058]]]}, "properties": {"GEOID": "19127", "NAME": "Marshall County", "BASENAME": "Marshall", "county_fips": "19127", "episode_count": 3, "event_count": 5, "county_name": "MARSHALL", "svi_overall": 0.9388}}, {"type": "Feature", "geometry": {"type": "Polygon", "coordinates": [[[-91.13276599997705, 42.64584400002662], [-91.60705899955651, 42.64397300002192], [-91.6085080000761, 42.46927499996079], [-91.59739699973657, 42.469242000173395], [-91.59698099980996, 42.29640800016206], [-91.13007899972338, 42.29576099968874], [-91.13276599997705, 42.64584400002662]]]}, "properties": {"GEOID": "19055", "NAME": "Delaware County", "BASENAME": "Delaware", "county_fips": "19055", "episode_count": 0, "event_count": 0, "county_name": "Delaware County", "svi_overall": 0.0918}}, {"type": "Feature", "geometry": {"type": "Polygon", "coordinates": [[[-93.5565400001749, 40.89829500008671], [-93.09759500019393, 40.898451000245664], [-93.09921700006757, 41.16086699998062], [-93.55755600015112, 41.161270999829874], [-93.5565400001749, 40.89829500008671]]]}, "properties": {"GEOID": "19117", "NAME": "Lucas County", "BASENAME": "Lucas", "county_fips": "19117", "episode_count": 1, "event_count": 1, "county_name": "LUCAS", "svi_overall": 0.7959}}, {"type": "Feature", "geometry": {"type": "Polygon", "coordinates": [[[-90.28355199956847, 41.76438599997451], [-90.18197300006518, 41.807069999714344], [-90.18190100009515, 41.84321600025381], [-90.15358400028192, 41.90661399979588], [-90.15160000001005, 41.93100200012452], [-90.16384699997641, 41.94493399996665], [-90.1641349998565, 41.956177999978664], [-90.1462249996778, 41.981329000100416], [-90.14006100004835, 42.00325199982218], [-90.15422100014149, 42.03307299984083], [-90.89837300002654, 42.03354800001047], [-90.89837300002654, 41.77139199971069], [-90.7862120000882, 41.77136900025968], [-90.76130300005379, 41.762403000014615], [-90.74892600039108, 41.7441499999052], [-90.73227499986285, 41.73738500029854], [-90.7261870004014, 41.74231400021775], [-90.71390199990189, 41.73457799999694], [-90.71173600005514, 41.73957599993014], [-90.70357200026028, 41.73722600001362], [-90.69164199958801, 41.74312799978224], [-90.69434200026048, 41.748928000071196], [-90.68687999972418, 41.75247100025628], [-90.68697099996076, 41.75686200004428], [-90.6769550001385, 41.75537499976668], [-90.6765259997931, 41.76093200032584], [-90.66785099963708, 41.76447499991771], [-90.65871799972166, 41.764816000281385], [-90.65145399955207, 41.75541600017493], [-90.62957900010097, 41.76530800008616], [-90.6163529999683, 41.75646499979966], [-90.6112630000414, 41.763965999946905], [-90.6000830001049, 41.762987999815046], [-90.59241999972714, 41.77063899973771], [-90.57913099984529, 41.759128999848116], [-90.56476300023803, 41.76583099972792], [-90.54953699993996, 41.7635649998789], [-90.54947500001568, 41.769236000325726], [-90.54281599991859, 41.76591899999424], [-90.53734500022519, 41.77643500017044], [-90.51279400039105, 41.765338999913496], [-90.50753700005959, 41.76947599972457], [-90.48500599958405, 41.7663949998908], [-90.47172300044829, 41.77360299975459], [-90.4639589997882, 41.75853599999151], [-90.45040200011773, 41.764825999958205], [-90.43595599979434, 41.76032300004345], [-90.42420099992258, 41.75055899988626], [-90.42746300011152, 41.74445999984348], [-90.42309899973262, 41.74057200028636], [-90.42801499958225, 41.7366170000367], [-90.41250399977713, 41.74111800000726], [-90.40624899991109, 41.7356750002885], [-90.41058499980257, 41.73242900000642], [-90.40793100005916, 41.72929599979342], [-90.39599399971422, 41.733818999990326], [-90.3895859996873, 41.73056900017525], [-90.38832899968665, 41.73713099970617], [-90.3575249996363, 41.727783000110975], [-90.3566729996916, 41.7318760000055], [-90.34772800009716, 41.73004900017676], [-90.33994800044185, 41.7405229998266], [-90.31656199964856, 41.72892800016755], [-90.30997299987169, 41.74342000004099], [-90.28355199956847, 41.76438599997451]]]}, "properties": {"GEOID": "19045", "NAME": "Clinton County", "BASENAME": "Clinton", "county_fips": "19045", "episode_count": 4, "event_count": 5, "county_name": "CLINTON", "svi_overall": 0.7857}}, {"type": "Feature", "geometry": {"type": "Polygon", "coordinates": [[[-92.06474400006209, 42.299115999753006], [-92.06418699967017, 42.468220999982314], [-92.08144599974563, 42.46819200002311], [-92.08166099983077, 42.64205600026858], [-92.55449200026848, 42.64231400014272], [-92.55432999988678, 42.46960099989759], [-92.53401500038503, 42.46959200006441], [-92.53350999987165, 42.297000999850546], [-92.06474400006209, 42.299115999753006]]]}, "properties": {"GEOID": "19013", "NAME": "Black Hawk County", "BASENAME": "Black Hawk", "county_fips": "19013", "episode_count": 8, "event_count": 15, "county_name": "BLACK HAWK", "svi_overall": 0.9184}}, {"type": "Feature", "geometry": {"type": "Polygon", "coordinates": [[[-93.2317100001244, 42.20887600021114], [-93.69838999955482, 42.20933899967681], [-93.69803200025285, 41.86337000011719], [-93.2318580002624, 41.86271099995006], [-93.2317100001244, 42.20887600021114]]]}, "properties": {"GEOID": "19169", "NAME": "Story County", "BASENAME": "Story", "county_fips": "19169", "episode_count": 4, "event_count": 6, "county_name": "STORY", "svi_overall": 0.6531}}, {"type": "Feature", "geometry": {"type": "Polygon", "coordinates": [[[-93.02434500019939, 43.49973300008489], [-93.49735300018912, 43.499622000154574], [-93.49763500022141, 43.25546799999303], [-93.0241429996347, 43.25553799991234], [-93.02434500019939, 43.49973300008489]]]}, "properties": {"GEOID": "19195", "NAME": "Worth County", "BASENAME": "Worth", "county_fips": "19195", "episode_count": 2, "event_count": 5, "county_name": "WORTH", "svi_overall": 0.1122}}, {"type": "Feature", "geometry": {"type": "Polygon", "coordinates": [[[-91.21770600044435, 43.500550000079734], [-91.61083499958134, 43.50065700003868], [-91.61104600036687, 43.342081000283166], [-91.60399200025957, 43.34204699971088], [-91.60530699998654, 43.081653000081424], [-91.1772220001324, 43.08024699993187], [-91.17525299992913, 43.13466499999594], [-91.14619999962386, 43.15240499967719], [-91.11911499969695, 43.200365999809144], [-91.06256200026137, 43.24316499975896], [-91.05864399994633, 43.25767900023243], [-91.07169799965153, 43.26101400032683], [-91.07371000041083, 43.274746000095476], [-91.10723699980153, 43.313644999901754], [-91.13734299989297, 43.32975699989099], [-91.20396399992765, 43.349852000064885], [-91.21476999977033, 43.36587399981738], [-91.19766999970356, 43.39533399987053], [-91.20314399977, 43.41980500004604], [-91.2333670000373, 43.45516799988607], [-91.2160350001669, 43.4811419998452], [-91.21770600044435, 43.500550000079734]]]}, "properties": {"GEOID": "19005", "NAME": "Allamakee County", "BASENAME": "Allamakee", "county_fips": "19005", "episode_count": 10, "event_count": 12, "county_name": "ALLAMAKEE", "svi_overall": 0.6633}}, {"type": "Feature", "geometry": {"type": "Polygon", "coordinates": [[[-92.5543809999404, 43.212813000081866], [-92.55421100006109, 42.90711199994757], [-92.08156799994435, 42.907012999753995], [-92.08097600029065, 43.2129469999467], [-92.5543809999404, 43.212813000081866]]]}, "properties": {"GEOID": "19037", "NAME": "Chickasaw County", "BASENAME": "Chickasaw", "county_fips": "19037", "episode_count": 6, "event_count": 10, "county_name": "CHICKASAW", "svi_overall": 0.1327}}, {"type": "Feature", "geometry": {"type": "Polygon", "coordinates": [[[-93.97123800023788, 42.90776199973495], [-93.49861699986245, 42.90851199993116], [-93.49763500022141, 43.25546799999303], [-93.97041499970719, 43.25535799986373], [-93.97123800023788, 42.90776199973495]]]}, "properties": {"GEOID": "19081", "NAME": "Hancock County", "BASENAME": "Hancock", "county_fips": "19081", "episode_count": 1, "event_count": 2, "county_name": "HANCOCK", "svi_overall": 0.3061}}, {"type": "Feature", "geometry": {"type": "Polygon", "coordinates": [[[-92.17907199967209, 40.899719999856686], [-92.17977999967677, 40.60052900008973], [-91.7291149998416, 40.61363999995376], [-91.71676900014104, 40.598530000090335], [-91.71818000012749, 40.90108700005211], [-92.17907199967209, 40.899719999856686]]]}, "properties": {"GEOID": "19177", "NAME": "Van Buren County", "BASENAME": "Van Buren", "county_fips": "19177", "episode_count": 3, "event_count": 3, "county_name": "VAN BUREN", "svi_overall": 0.7551}}, {"type": "Feature", "geometry": {"type": "Polygon", "coordinates": [[[-95.67277099998678, 41.86314700001588], [-95.09286100004005, 41.86337400012693], [-95.09085099982889, 42.21040500032417], [-95.670821999875, 42.21140799975509], [-95.67277099998678, 41.86314700001588]]]}, "properties": {"GEOID": "19047", "NAME": "Crawford County", "BASENAME": "Crawford", "county_fips": "19047", "episode_count": 0, "event_count": 0, "county_name": "Crawford County", "svi_overall": 0.9592}}]}